[
  {
    "display name": "Free Dharshan Ticket Counter",
    "name_te": "ఉచిత దర్శన్ టికెట్ కౌంటర్",
    "name_hi": "निःशुल्क दर्शन टिकट काउंटर",
    "name_ta": "இலவச தரிசன டிக்கெட் கவுண்டர்",
    "name_kn": "ಉಚಿತ ದರ್ಶನ ಟಿಕೆಟ್ ಕೌಂಟರ್",
    "name_ml": "സൗജന്യ ദർശൻ ടിക്കറ്റ് കൗണ്ടർ",
    "category": "FREE_DARSHAN_COUNTER",
    "latitude": 16.0728842,
    "longitude": 78.8690181
  },
  {
    "display name": "Mallamma Kanneeru Temple",
    "name_te": "మల్లమ్మ కన్నీరు ఆలయం",
    "name_hi": "मल्लम्मा कन्नेरू मंदिर",
    "name_ta": "மல்லம்மா கண்ணீரு கோயில்",
    "name_kn": "ಮಲ್ಲಮ್ಮ ಕಣ್ಣೀರು ದೇವಸ್ಥಾನ",
    "name_ml": "മല്ലമ്മ കണ്ണീർ ക്ഷേത്രം",
    "category": "TEMPLE",
    "latitude": 16.0801635,
    "longitude": 78.8606167
  },
  {
    "display name": "Sree Nidanapati Sree Prasanna Lakshmi Amarajyoti Peetham",
    "name_te": "శ్రీ నిదానపతి శ్రీ ప్రసన్న లక్ష్మీ అమరోజ్యోతి పీఠం",
    "name_hi": "श्री निदानपति श्री प्रसन्न लक्ष्मी अमरोज्योति पीठ",
    "name_ta": "ஸ்ரீ நிதானபதி ஸ்ரீ பிரசன்ன லக்ஷ்மி அமரோஜ்யோதி பீடம்",
    "name_kn": "ಶ್ರೀ ನಿದಾನಪತಿ ಶ್ರೀ ಪ್ರಸನ್ನ ಲಕ್ಷ್ಮೀ ಅಮರೋಜ್ಯೋತಿ ಪೀಠ",
    "name_ml": "ശ്രീ നിദാനപതി ശ്രീ പ്രസന്ന ലക്ഷ്മി അമരോജ്യോതി പീഠം",
    "category": "TEMPLE",
    "latitude": 16.072672,
    "longitude": 78.8645805
  },
  {
    "display name": "Sri Vemanaaradhya Peetham",
    "name_te": "శ్రీ వేమనారాధ్య పీఠం",
    "name_hi": "श्री वेमनारध्या पीठम",
    "name_ta": "ஸ்ரீ வேமனாராத்ய பீடம்",
    "name_kn": "ಶ್ರೀ ವೇಮನಾರಾಧ್ಯ ಪೀಠ",
    "name_ml": "ശ്രീ വേമനാരാധ്യ പീഠം",
    "category": "TEMPLE",
    "latitude": 16.0759574,
    "longitude": 78.8642436
  },
  {
    "display name": "Mahishasura Mardini Temple",
    "name_te": "మహిషాసుర మర్దిని ఆలయం",
    "name_hi": "महिषासुर मर्दिनी मंदिर",
    "name_ta": "மகிஷாசுர மர்தினி கோயில்",
    "name_kn": "ಮಹಿಷಾಸುರ ಮರ್ದಿನಿ ದೇವಾಲಯ",
    "name_ml": "മഹിഷാസുര മർദ്ദിനി ക്ഷേത്രം",
    "category": "TEMPLE",
    "latitude": 16.0770268,
    "longitude": 78.8622053
  },
  {
    "display name": "Sri Chamundeshwari Aalayam",
    "name_te": "శ్రీ చాముండేశ్వరి ఆలయం",
    "name_hi": "श्री चामुंडेश्वरी आलयम",
    "name_ta": "ஸ்ரீ சாமுண்டீஸ்வரி ஆலயம்",
    "name_kn": "ಶ್ರೀ ಚಾಮುಂಡೇಶ್ವರಿ ಆಲಯ",
    "name_ml": "ശ്രീ ചാമുണ്ഡേശ്വരി ആലയം",
    "category": "TEMPLE",
    "latitude": 16.0777406,
    "longitude": 78.8625169
  },
  {
    "display name": "Pancha Mukha Siva Temple",
    "name_te": "పంచ ముఖ శివాలయం",
    "name_hi": "पंच मुख शिव मंदिर",
    "name_ta": "பஞ்ச முக சிவன் கோயில்",
    "name_kn": "ಪಂಚಮುಖ ಶಿವ ದೇವಾಲಯ",
    "name_ml": "പഞ്ചമുഖ ശിവ ക്ഷേത്രം",
    "category": "TEMPLE",
    "latitude": 16.0790163,
    "longitude": 78.8624216
  },
  {
    "display name": "SGS Avadhoota Datta Peetham",
    "name_te": "SGS అవధూత దత్త పీఠం",
    "name_hi": "एसजीएस अवधूत दत्ता पीठम",
    "name_ta": "எஸ்ஜிஎஸ் அவதூத தத்த பீடம்",
    "name_kn": "ಎಸ್‌ಜಿಎಸ್ ಅವಧೂತ ದತ್ತ ಪೀಠ",
    "name_ml": "എസ്‌ജി‌എസ് അവധൂത ദത്ത പീഠം",
    "category": "TEMPLE",
    "latitude": 16.0776102,
    "longitude": 78.8674097
  },
  {
    "display name": "Sri Bhramaramba Mallikarjuna Swamy Vara Devasthanam",
    "name_te": "శ్రీ భ్రమరాంబ మల్లికార్జున స్వామి వర దేవస్థానం",
    "name_hi": "श्री भ्रामराम्बा मल्लिकार्जुन स्वामी वर देवस्थानम्",
    "name_ta": "ஸ்ரீ பிரமராம்பா மல்லிகார்ஜுன சுவாமி வர தேவஸ்தானம்",
    "name_kn": "ಶ್ರೀ ಭ್ರಮರಾಂಬ ಮಲ್ಲಿಕಾರ್ಜುನ ಸ್ವಾಮಿ ವರ ದೇವಸ್ಥಾನ",
    "name_ml": "ശ്രീ ഭ്രമരാംബ മല്ലികാർജുന സ്വാമി വര ദേവസ്ഥാനം",
    "category": "TEMPLE",
    "latitude": 16.0740593,
    "longitude": 78.8673168
  },
  {
    "display name": "Srisailam Panditharadhya Peetham",
    "name_te": "శ్రీశైలం పండితారాధ్య పీఠం",
    "name_hi": "श्रीशैलम पंडिताराध्य पीठम",
    "name_ta": "ஸ்ரீசைலம் பண்டிதாராத்ய பீடம்",
    "name_kn": "ಶ್ರೀಶೈಲಂ ಪಂಡಿತಾರಾಧ್ಯ ಪೀಠಮ್",
    "name_ml": "ശ്രീശൈലം പണ്ഡിതാരാധ്യപീഠം",
    "category": "TEMPLE",
    "latitude": 16.0738731,
    "longitude": 78.8676675
  },
  {
    "display name": "Sri Manikeswari Matha Temple",
    "name_te": "శ్రీ మాణికేశ్వరి మఠం",
    "name_hi": "श्री माणिकेश्वरी मठ",
    "name_ta": "ஸ்ரீ மாணிகேஸ்வரி மடம்",
    "name_kn": "ಶ್ರೀ ಮಾಣಿಕೇಶ್ವರಿ ಮಠ",
    "name_ml": "ശ്രീ മാണികേശ്വരി മഠം",
    "category": "TEMPLE",
    "latitude": 16.0644968,
    "longitude": 78.8776929
  },
  {
    "display name": "Sri Sakshi Ganapathi Swamy Temple",
    "name_te": "శ్రీ సాక్షి గణపతి స్వామి దేవాలయం",
    "name_hi": "श्री साक्षी गणपति स्वामी मंदिर",
    "name_ta": "ஸ்ரீ சாக்ஷி கணபதி ஸ்வாமி கோவில்",
    "name_kn": "ಶ್ರೀ ಸಾಕ್ಷಿ ಗಣಪತಿ ಸ್ವಾಮಿ ದೇವಸ್ಥಾನ",
    "name_ml": "ശ്രീ സാക്ഷി ഗണപതി സ്വാമി ക്ഷേത്രം",
    "category": "TEMPLE",
    "latitude": 16.0576659,
    "longitude": 78.8785223
  },
  {
    "display name": "Srisailam Temple",
    "name_te": "శ్రీశైలం ఆలయం",
    "name_hi": "श्रीशैलम मंदिर",
    "name_ta": "ஸ்ரீசைலம் கோயில்",
    "name_kn": "ಶ್ರೀಶೈಲಂ ದೇವಾಲಯ",
    "name_ml": "ശ്രീശൈലം ക്ഷേത്രം",
    "category": "TEMPLE",
    "latitude": 16.0742481,
    "longitude": 78.8681524
  },
  {
    "display name": "Pathalaganga, Srisailam",
    "name_te": "పాతాలగంగ, శ్రీశైలం",
    "name_hi": "पथलगंगा, श्रीशैलम",
    "name_ta": "பாதாளகங்கா, ஸ்ரீசைலம்",
    "name_kn": "ಪಾತಾಳಗಂಗಾ, ಶ್ರೀಶೈಲಂ",
    "name_ml": "പാതലഗംഗ, ശ്രീശൈലം",
    "category": "TEMPLE",
    "latitude": 16.0804381,
    "longitude": 78.8817424
  },
  {
    "display name": "Paladhara–Panchadhara",
    "name_te": "పలధార–పంచధార",
    "name_hi": "पलाधारा-पंचधारा",
    "name_ta": "பலதார–பஞ்சதார",
    "name_kn": "ಪಲಾಧಾರ–ಪಂಚಧಾರ",
    "name_ml": "പാലാധാര–പഞ്ചാധാര",
    "category": "TEMPLE",
    "latitude": 16.0532474,
    "longitude": 78.8910426
  },
  {
    "display name": "Chhatrapati Shivaji Maharaj Temple, Srisailam",
    "name_te": "ఛత్రపతి శివాజీ మహారాజ ఆలయం, శ్రీశైలం",
    "name_hi": "छत्रपति शिवाजी महाराज मंदिर, श्रीशैलम",
    "name_ta": "சத்ரபதி சிவாஜி மகாராஜ் கோவில், ஸ்ரீசைலம்",
    "name_kn": "ಛತ್ರಪತಿ ಶಿವಾಜಿ ಮಹಾರಾಜ ದೇವಸ್ಥಾನ, ಶ್ರೀಶೈಲಂ",
    "name_ml": "ഛത്രപതി ശിവജി മഹാരാജ് ക്ഷേത്രം, ശ്രീശൈലം",
    "category": "TEMPLE",
    "latitude": 16.0780558,
    "longitude": 78.8679649
  },
  {
    "display name": "Chhatrapati Shivaji Maharaj Temple Entrance",
    "name_te": "ఛత్రపతి శివాజీ మహారాజ ఆలయ ప్రవేశ ద్వారం",
    "name_hi": "छत्रपति शिवाजी महाराज मंदिर प्रवेश द्वार",
    "name_ta": "சத்ரபதி சிவாஜி மகாராஜ் கோவில் நுழைவு வாசல்",
    "name_kn": "ಛತ್ರಪತಿ ಶಿವಾಜಿ ಮಹಾರಾಜ ದೇವಸ್ಥಾನ ಪ್ರವೇಶ ದ್ವಾರ",
    "name_ml": "ഛത്രപതി ശിവജി മഹാരാജ് ക്ഷേത്ര പ്രവേശന കവാടം",
    "category": "TEMPLE",
    "latitude": 16.0779739,
    "longitude": 78.8684601
  },
  {
    "display name": "Pancha Bhoota Shiva Lingas",
    "name_te": "పంచ భూత శివ లింగాలు",
    "name_hi": "पंच भूता शिव लिंग",
    "name_ta": "பஞ்ச பூத சிவ லிங்கங்கள்",
    "name_kn": "ಪಂಚ ಭೂತ ಶಿವ ಲಿಂಗಗಳು",
    "name_ml": "പഞ്ചഭൂത ശിവലിംഗങ്ങൾ",
    "category": "TEMPLE",
    "latitude": 16.0741447,
    "longitude": 78.8678624
  },
  {
    "display name": "Vrudda Lingeshwara Swamy Temple",
    "name_te": "వృద్ద లింగేశ్వర స్వామి దేవాలయం",
    "name_hi": "वृद्दा लिंगेश्वर स्वामी मंदिर",
    "name_ta": "விருத்த லிங்கேஸ்வர சுவாமி கோவில்",
    "name_kn": "ವೃದ್ದ ಲಿಂಗೇಶ್ವರ ಸ್ವಾಮಿ ದೇವಸ್ಥಾನ",
    "name_ml": "വൃദ്ധ ലിംഗേശ്വര സ്വാമി ക്ഷേത്രം",
    "category": "TEMPLE",
    "latitude": 16.0741563,
    "longitude": 78.8681614
  },
  {
    "display name": "Thriphala Vruksham (Ravi)",
    "name_te": "త్రిఫల వృక్షం (రవి)",
    "name_hi": "त्रिफला वृक्षम् (रवि)",
    "name_ta": "திரிபால விருக்ஷம் (ரவி)",
    "name_kn": "ತ್ರಿಫಲ ವೃಕ್ಷಂ (ರವಿ)",
    "name_ml": "തൃഫലവൃക്ഷം (രവി)",
    "category": "TEMPLE",
    "latitude": 16.0742159,
    "longitude": 78.8682793
  },
  {
    "display name": "Sri Rajarajeshwari Devi Temple",
    "name_te": "శ్రీ రాజరాజేశ్వరి దేవి ఆలయం",
    "name_hi": "श्री राजराजेश्वरी देवी मंदिर",
    "name_ta": "ஸ்ரீ ராஜராஜேஸ்வரி தேவி கோவில்",
    "name_kn": "ಶ್ರೀ ರಾಜರಾಜೇಶ್ವರಿ ದೇವಿ ದೇವಸ್ಥಾನ",
    "name_ml": "ശ്രീ രാജരാജേശ്വരി ദേവി ക്ഷേത്രം",
    "category": "TEMPLE",
    "latitude": 16.074165,
    "longitude": 78.8686908
  },
  {
    "display name": "Chhatrapati Shivaji Maharaj Gopuram",
    "name_te": "ఛత్రపతి శివాజీ మహారాజ్ గోపురం",
    "name_hi": "छत्रपति शिवाजी महाराज गोपुरम",
    "name_ta": "சத்ரபதி சிவாஜி மகாராஜ் கோபுரம்",
    "name_kn": "ಛತ್ರಪತಿ ಶಿವಾಜಿ ಮಹಾರಾಜ ಗೋಪುರ",
    "name_ml": "ഛത്രപതി ശിവജി മഹാരാജ് ഗോപുരം",
    "category": "TEMPLE",
    "latitude": 16.0748613,
    "longitude": 78.8681312
  },
  {
    "display name": "Shree Mallikarjuna Temple Kund",
    "name_te": "శ్రీ మల్లికార్జున ఆలయ కుండ",
    "name_hi": "श्री मल्लिकार्जुन मंदिर कुंड",
    "name_ta": "ஸ்ரீ மல்லிகார்ஜுன கோவில் குண்டம்",
    "name_kn": "ಶ್ರೀ ಮಲ್ಲಿಕಾರ್ಜುನ ದೇವಸ್ಥಾನ ಕುಂಡ",
    "name_ml": "ശ്രീ മല്ലികാർജുന ക്ഷേത്ര കുണ്ഡ്",
    "category": "TEMPLE",
    "latitude": 16.0747855,
    "longitude": 78.869244
  },
  {
    "display name": "Ishtakaameshwari Devi Temple",
    "name_te": "ఇష్టకామేశ్వరి దేవి ఆలయం",
    "name_hi": "इष्टकामेश्वरी देवी मंदिर",
    "name_ta": "இஷ்டகாமேஸ்வரி தேவி கோயில்",
    "name_kn": "ಇಷ್ಟಕಾಮೇಶ್ವರಿ ದೇವಿ ದೇವಾಲಯ",
    "name_ml": "ഇഷ്ടകാമേശ്വരി ദേവി ക്ഷേത്രം",
    "category": "TEMPLE",
    "latitude": 16.0733057,
    "longitude": 78.8687707
  },
  {
    "display name": "Sri Uma Rama Lingeshwaraswamy Vari Temple",
    "name_te": "శ్రీ ఉమా రామ లింగేశ్వరస్వామి వారి ఆలయం",
    "name_hi": "श्री उमा राम लिंगेश्वरस्वामी वारी मंदिर",
    "name_ta": "ஸ்ரீ உமா ராம லிங்கேஸ்வரசுவாமி வாரி ஆலயம்",
    "name_kn": "ಶ್ರೀ ಉಮಾ ರಾಮ ಲಿಂಗೇಶ್ವರಸ್ವಾಮಿ ವಾರಿ ದೇವಸ್ಥಾನ",
    "name_ml": "ശ്രീ ഉമാ രാമ ലിംഗേശ്വരസ്വാമി വാരി ക്ഷേത്രം",
    "category": "TEMPLE",
    "latitude": 16.0729743,
    "longitude": 78.8682601
  },
  {
    "display name": "Sri Ankalamma Grama Devatha",
    "name_te": "శ్రీ అంకాలమ్మ గ్రామ దేవత",
    "name_hi": "श्री अंकलम्मा ग्राम देवता",
    "name_ta": "ஸ்ரீ அங்காளம்மா கிராம தேவதா",
    "name_kn": "ಶ್ರೀ ಅಂಕಾಳಮ್ಮ ಗ್ರಾಮ ದೇವತೆ",
    "name_ml": "ശ്രീ അങ്കളമ്മ ഗ്രാമ ദേവത",
    "category": "TEMPLE",
    "latitude": 16.0737398,
    "longitude": 78.8720376
  },
  {
    "display name": "Pathala Ganga Steps Way",
    "name_te": "పాతాల గంగా మెట్ల మార్గం",
    "name_hi": "पथला गंगा स्टेप्स वे",
    "name_ta": "பாதாள கங்கை படிகள் வழி",
    "name_kn": "ಪಾತಾಳ ಗಂಗಾ ಮೆಟ್ಟಿಲು ಮಾರ್ಗ",
    "name_ml": "പാതാള ഗംഗ പടിക്കെട്ടുകൾ",
    "category": "TEMPLE",
    "latitude": 16.0796664,
    "longitude": 78.879296
  },
  {
    "display name": "Free Darshanam Entrance Gate, Srisailam",
    "name_te": "ఉచిత దర్శనం ప్రవేశ ద్వారం, శ్రీశైలం",
    "name_hi": "निःशुल्क दर्शनम प्रवेश द्वार, श्रीशैलम",
    "name_ta": "இலவச தரிசனம் நுழைவு வாயில், ஸ்ரீசைலம்",
    "name_kn": "ಉಚಿತ ದರ್ಶನಂ ಪ್ರವೇಶ ದ್ವಾರ, ಶ್ರೀಶೈಲಂ",
    "name_ml": "സൗജന്യ ദർശനം പ്രവേശന കവാടം, ശ്രീശൈലം",
    "category": "TEMPLE",
    "latitude": 16.0729241,
    "longitude": 78.8697979
  },
  {
    "display name": "Sri Bayalu Veerabhadra Swamy Temple",
    "name_te": "శ్రీ బయలు వీరభద్ర స్వామి దేవాలయం",
    "name_hi": "श्री बयालु वीरभद्र स्वामी मंदिर",
    "name_ta": "ஸ்ரீ பயலு வீரபத்ர சுவாமி கோவில்",
    "name_kn": "ಶ್ರೀ ಬಯಲು ವೀರಭದ್ರ ಸ್ವಾಮಿ ದೇವಸ್ಥಾನ",
    "name_ml": "ശ്രീ ബയലു വീരഭദ്ര സ്വാമി ക്ഷേത്രം",
    "category": "TEMPLE",
    "latitude": 16.0705785,
    "longitude": 78.8690176
  },
  {
    "display name": "Sri Kanchi Kamakoti Peetham",
    "name_te": "శ్రీ కాంచి కామకోటి పీఠం",
    "name_hi": "श्री कांची कामकोटी पीठम",
    "name_ta": "ஸ்ரீ காஞ்சி காமகோடி பீடம்",
    "name_kn": "ಶ್ರೀ ಕಾಂಚಿ ಕಾಮಕೋಟಿ ಪೀಠ",
    "name_ml": "ശ്രീ കാഞ്ചി കാമകോടി പീഠം",
    "category": "TEMPLE",
    "latitude": 16.0740658,
    "longitude": 78.8691241
  },
  {
    "display name": "Sri Aarama Veerabhadra Swamy Aalayam",
    "name_te": "శ్రీ ఆరామ వీరభద్ర స్వామి ఆలయం",
    "name_hi": "श्री आराम वीरभद्र स्वामी आलयम",
    "name_ta": "ஸ்ரீ ஆராம வீரபத்ர ஸ்வாமி ஆலயம்",
    "name_kn": "ಶ್ರೀ ಆರಾಮ ವೀರಭದ್ರ ಸ್ವಾಮಿ ದೇವಾಲಯ",
    "name_ml": "ശ്രീ ആരാമ വീരഭദ്ര സ്വാമി ആലയം",
    "category": "TEMPLE",
    "latitude": 16.0744319,
    "longitude": 78.8696398
  },
  {
    "display name": "Varahi Vajreshwari Chandra Lingam",
    "name_te": "వారాహి వజ్రేశ్వరి చంద్ర లింగం",
    "name_hi": "वाराही वज्रेश्वरी चंद्र लिंगम",
    "name_ta": "வாராஹி வஜ்ரேஸ்வரி சந்திர லிங்கம்",
    "name_kn": "ವರಾಹಿ ವಜ್ರೇಶ್ವರಿ ಚಂದ್ರ ಲಿಂಗಮ್",
    "name_ml": "വരാഹി വജ്രേശ്വരി ചന്ദ്ര ലിംഗം",
    "category": "TEMPLE",
    "latitude": 16.0767842,
    "longitude": 78.8734487
  },
  {
    "display name": "Hatakeswaram Temple",
    "name_te": "హటకేశ్వరం ఆలయం",
    "name_hi": "हातकेश्वरम मंदिर",
    "name_ta": "ஹடகேஸ்வரம் கோயில்",
    "name_kn": "ಹಟಕೇಶ್ವರಂ ದೇವಾಲಯ",
    "name_ml": "ഹടകേശ്വരം ക്ഷേത്രം",
    "category": "TEMPLE",
    "latitude": 16.05366,
    "longitude": 78.8885
  },
  {
    "display name": "Sri Srikhareswara Temple",
    "name_te": "శ్రీ శ్రీఖరేశ్వర ఆలయం",
    "name_hi": "श्री श्रीखरेस्वर मंदिर",
    "name_ta": "ஸ்ரீ ஸ்ரீகரேஸ்வரர் கோயில்",
    "name_kn": "ಶ್ರೀ ಶ್ರೀಖರೇಶ್ವರ ದೇವಸ್ಥಾನ",
    "name_ml": "ശ്രീ ശ്രീഖരേശ്വര ക്ഷേത്രം",
    "category": "TEMPLE",
    "latitude": 16.04567,
    "longitude": 78.91596
  },
  {
    "display name": "Sri Sri Sri Lalitha Devi Peetham",
    "name_te": "శ్రీ శ్రీ శ్రీ లలితా దేవి పీఠం",
    "name_hi": "श्री श्री श्री ललिता देवी पीठम",
    "name_ta": "ஸ்ரீ ஸ்ரீ ஸ்ரீ லலிதா தேவி பீடம்",
    "name_kn": "ಶ್ರೀ ಶ್ರೀ ಶ್ರೀ ಲಲಿತಾ ದೇವಿ ಪೀಠ",
    "name_ml": "ശ്രീ ശ്രീ ശ്രീ ലളിതാ ദേവി പീഠം",
    "category": "TEMPLE",
    "latitude": 16.05329,
    "longitude": 78.88785
  },
  {
    "display name": "AP Tourism Hotel – Haritha",
    "name_te": "AP టూరిజం హోటల్ - హరిత",
    "name_hi": "एपी टूरिज्म होटल – हरिथा",
    "name_ta": "ஏபி சுற்றுலா ஹோட்டல் - ஹரிதா",
    "name_kn": "ಎಪಿ ಪ್ರವಾಸೋದ್ಯಮ ಹೋಟೆಲ್ - ಹರಿತಾ",
    "name_ml": "എപി ടൂറിസം ഹോട്ടൽ - ഹരിത",
    "category": "ACCOMMODATION",
    "latitude": 16.0710625,
    "longitude": 78.8699375
  },
  {
    "display name": "Srisailam Online Room Booking – OLRB",
    "name_te": "శ్రీశైలం ఆన్‌లైన్ రూమ్ బుకింగ్ - OLRB",
    "name_hi": "श्रीशैलम ऑनलाइन रूम बुकिंग - ओएलआरबी",
    "name_ta": "ஸ்ரீசைலம் ஆன்லைன் அறை முன்பதிவு - OLRB",
    "name_kn": "ಶ್ರೀಶೈಲಂ ಆನ್‌ಲೈನ್ ರೂಮ್ ಬುಕಿಂಗ್ - OLRB",
    "name_ml": "ശ്രീശൈലം ഓൺലൈൻ റൂം ബുക്കിംഗ് - OLRB",
    "category": "ACCOMMODATION",
    "latitude": 16.0773972,
    "longitude": 78.8753738
  },
  {
    "display name": "Sri Bhramaramba Guest House",
    "name_te": "శ్రీ భ్రమరాంబ గెస్ట్ హౌస్",
    "name_hi": "श्री भ्रमराम्बा गेस्ट हाउस",
    "name_ta": "ஸ்ரீ ப்ரமராம்பா விருந்தினர் மாளிகை",
    "name_kn": "ಶ್ರೀ ಭ್ರಮರಾಂಬ ಗೆಸ್ಟ್ ಹೌಸ್",
    "name_ml": "ശ്രീ ഭ്രമരാംബ ഗസ്റ്റ് ഹൗസ്",
    "category": "ACCOMMODATION",
    "latitude": 16.0702627,
    "longitude": 78.8701854
  },
  {
    "display name": "Railway Guest House, Neelakanta Sadan",
    "name_te": "రైల్వే గెస్ట్ హౌస్, నీలకంఠ సదన్",
    "name_hi": "रेलवे गेस्ट हाउस, नीलकंठ सदन",
    "name_ta": "ரயில்வே விருந்தினர் மாளிகை, நீலகண்ட சதன்",
    "name_kn": "ರೈಲ್ವೇ ಅತಿಥಿ ಗೃಹ, ನೀಲಕಂಠ ಸದನ",
    "name_ml": "റെയിൽവേ ഗസ്റ്റ് ഹൗസ്, നീലകണ്ഠ സദൻ",
    "category": "ACCOMMODATION",
    "latitude": 16.077117,
    "longitude": 78.863761
  },
  {
    "display name": "Karnataka Guest House",
    "name_te": "కర్ణాటక గెస్ట్ హౌస్",
    "name_hi": "कर्नाटक गेस्ट हाउस",
    "name_ta": "கர்நாடகா விருந்தினர் மாளிகை",
    "name_kn": "ಕರ್ನಾಟಕಾ ಗೆಸ್ಟ್ ಹೌಸ್",
    "name_ml": "കർണാടക ഗസ്റ്റ് ഹൗസ്",
    "category": "ACCOMMODATION",
    "latitude": 16.07335,
    "longitude": 78.87344
  },
  {
    "display name": "Rudra Cottage",
    "name_te": "రుద్ర కాటేజ్",
    "name_hi": "रुद्र कॉटेज",
    "name_ta": "ருத்ரா காட்டேஜ்",
    "name_kn": "ರುದ್ರ ಕಾಟೇಜ್",
    "name_ml": "രുദ്ര കോട്ടേജ്",
    "category": "ACCOMMODATION",
    "latitude": 16.0786186,
    "longitude": 78.8641341
  },
  {
    "display name": "Kamineni Cottage",
    "name_te": "కామినేని కాటేజ్",
    "name_hi": "कामिनेनी कॉटेज",
    "name_ta": "காமினேனி குடில்",
    "name_kn": "ಕಾಮಿನೇನಿ ಕಾಟೇಜ್",
    "name_ml": "കാമിനേനി കോട്ടേജ്",
    "category": "ACCOMMODATION",
    "latitude": 16.0769386,
    "longitude": 78.8694304
  },
  {
    "display name": "Adithya Cottage",
    "name_te": "ఆదిత్య కాటేజ్",
    "name_hi": "आदित्य कॉटेज",
    "name_ta": "ஆதித்யா காட்டேஜ்",
    "name_kn": "ಆದಿತ್ಯ ಕಾಟೆಜ್",
    "name_ml": "ആദിത്യ കോട്ടേജ്",
    "category": "ACCOMMODATION",
    "latitude": 16.0767993,
    "longitude": 78.8698227
  },
  {
    "display name": "Vishnu Vallabha",
    "name_te": "విష్ణు వల్లభ",
    "name_hi": "विष्णु वल्लभ",
    "name_ta": "விஷ்ணு வல்லப",
    "name_kn": "ವಿಷ್ಣು ವಲ್ಲಭ",
    "name_ml": "വിഷ്ണു വല്ലഭൻ",
    "category": "ACCOMMODATION",
    "latitude": 16.0765265,
    "longitude": 78.870399
  },
  {
    "display name": "Sri Nandeswara Dormitory",
    "name_te": "శ్రీ నందీశ్వర వసతి గృహం",
    "name_hi": "श्री नंदेश्वर छात्रावास",
    "name_ta": "ஸ்ரீ நந்தீஸ்வரர் தங்குமிடம்",
    "name_kn": "ಶ್ರಿ ನಂದೀಶ್ವರ ಡೋರ್ಮಿಟರಿ",
    "name_ml": "ശ്രീ നന്ദേശ്വര ഡോർമിറ്ററി",
    "category": "ACCOMMODATION",
    "latitude": 16.0770065,
    "longitude": 78.8764068
  },
  {
    "display name": "SSS (Srisaila Siva Shankara) Deluxe Dormitory",
    "name_te": "SSS (శ్రీశైలం శివ శంకర) డీలక్స్ డార్మిటరీ",
    "name_hi": "एसएसएस (श्रीशैलम शिव शंकर) डीलक्स छात्रावास",
    "name_ta": "SSS (ஸ்ரீசைலம் சிவ சங்கர) டீலக்ஸ் தங்குமிடம்",
    "name_kn": "SSS (ಶ್ರೀಶೈಲಂ ಶಿವ ಶಂಕರ) ಡೀಲಕ್ಸ್ ಡಾರ್ಮಿಟರಿ",
    "name_ml": "SSS (ശ്രീശൈലം ശിവ ശങ്കര) ഡീലക്സ്സ് ഡോർമിറ്ററി",
    "category": "ACCOMMODATION",
    "latitude": 16.0737432,
    "longitude": 78.8748374
  },
  {
    "display name": "Vasavi Vihar",
    "name_te": "వాసవి విహార్",
    "name_hi": "वासवी विहार",
    "name_ta": "வாசவி விஹார்",
    "name_kn": "ವಾಸವಿ ವಿಹಾರ್",
    "name_ml": "വാസവി വിഹാർ",
    "category": "ACCOMMODATION",
    "latitude": 16.0713199,
    "longitude": 78.8765091
  },
  {
    "display name": "Vasavi Satram",
    "name_te": "వాసవి సత్రం",
    "name_hi": "वासवी सतराम",
    "name_ta": "வாசவி சத்திரம்",
    "name_kn": "ವಾಸವಿ ಸತ್ರಂ",
    "name_ml": "വാസവി സത്രം",
    "category": "ACCOMMODATION",
    "latitude": 16.0739485,
    "longitude": 78.8707
  },
  {
    "display name": "Vasavi – 2 (New Building)",
    "name_te": "వాసవి – 2 (కొత్త భవనం)",
    "name_hi": "वासवी – 2 (नई इमारत)",
    "name_ta": "வாசவி – 2 (புதிய கட்டிடம்)",
    "name_kn": "ವಾಸವಿ – 2 (ಹೊಸ ಕಟ್ಟಡ)",
    "name_ml": "വാസവി – 2 (പുതിയ കെട്ടിടം)",
    "category": "ACCOMMODATION",
    "latitude": 16.0713018,
    "longitude": 78.8767256
  },
  {
    "display name": "Srisailam Shivashakthi Sena Charities",
    "name_te": "శ్రీశైలం శివశక్తి సేవా స్వచ్ఛంద సంస్థలు",
    "name_hi": "शिवशक्ति सेवा चैरिटीज़",
    "name_ta": "ஸ்ரீசைலம் சிவசக்தி சேவா தொண்டு நிறுவனங்கள்",
    "name_kn": "ಶ್ರೀಶೈಲಂ ಶಿವಶಕ್ತಿ ಸೇವಾ ಚಾರಿಟೀಸ್",
    "name_ml": "ശ്രീശൈലം ശിവശക്തി സേവാ ചാരിറ്റീസ്",
    "category": "ACCOMMODATION",
    "latitude": 16.0755246,
    "longitude": 78.8661158
  },
  {
    "display name": "Akhila Bharatha Vamsharaj Nithya Annadana Satram",
    "name_te": "అఖిల భారత వంశరాజ్ నిత్య అన్నదాన సత్రం",
    "name_hi": "अखिला भरत वंश नित्य अन्नदाना सत्रम्",
    "name_ta": "அகில இந்திய வம்ச நித்ய அன்னதான சத்ரம்",
    "name_kn": "ಅಖಿಲ ಭಾರತ ವಂಶ ನಿತ್ಯ ಅನ್ನದಾನ ಸತ್ರ",
    "name_ml": "അഖില ഭാരത വംശ നിത്യ അന്നദാന സത്രം",
    "category": "ACCOMMODATION",
    "latitude": 16.078471,
    "longitude": 78.8650442
  },
  {
    "display name": "Gouri Nitya Annadanam Satram",
    "name_te": "గౌరీ నిత్య అన్నదానం సత్రం",
    "name_hi": "गौरी नित्या अन्नदानम सतरम",
    "name_ta": "கௌரி நித்ய அன்னதானம் சத்ரம்",
    "name_kn": "ಗೌರಿ ನಿತ್ಯ ಅನ್ನದಾನ ಸತ್ರಂ",
    "name_ml": "ഗൗരി നിത്യ അന്നദാനം സത്രം",
    "category": "ACCOMMODATION",
    "latitude": 16.0781334,
    "longitude": 78.8653663
  },
  {
    "display name": "Sri Surya Bhagavan Surya Balija Satram",
    "name_te": "శ్రీ సూర్య భగవాన్ సూర్య బలిజ సత్రం",
    "name_hi": "श्री सूर्य भगवान सूर्य बलिजा सत्रम्",
    "name_ta": "ஸ்ரீ சூரிய பகவான் சூரிய பலிஜ சத்திரம்",
    "name_kn": "ಶ್ರೀ ಸೂರ್ಯ ಭಗವಾನ್ ಸೂರ್ಯ ಬಲಿಜ ಸತ್ರಮ್",
    "name_ml": "ശ്രീ സൂര്യ ഭഗവാൻ സൂര്യ ബലിജ സത്രം",
    "category": "ACCOMMODATION",
    "latitude": 16.07727,
    "longitude": 78.8654627
  },
  {
    "display name": "Mahendra Medara Sangam Satram",
    "name_te": "మహేంద్ర మేదర సంగం సత్రం",
    "name_hi": "महेंद्र मेदारा संगम सतरम",
    "name_ta": "மகேந்திர மேதார சங்கம் சத்திரம்",
    "name_kn": "ಮಹೇಂದ್ರ ಮೇದಾರ ಸಂಗಮ ಸತ್ರಂ",
    "name_ml": "മഹേന്ദ്ര മേദാര സംഘം സത്രം",
    "category": "ACCOMMODATION",
    "latitude": 16.0780782,
    "longitude": 78.8663017
  },
  {
    "display name": "Sri Saiva Maha Peetam Sakha",
    "name_te": "శ్రీ శైవ మహా పీఠం శాఖ",
    "name_hi": "श्री शैव महा पीठम शाखा",
    "name_ta": "ஸ்ரீ சைவ மகா பீடம் சகா",
    "name_kn": "ಶ್ರೀ ಶೈವ ಮಹಾ ಪೀಠ ಸಖಾ",
    "name_ml": "ശ്രീ ശൈവ മഹാ പീഠം ശാഖ",
    "category": "ACCOMMODATION",
    "latitude": 16.0775625,
    "longitude": 78.8650688
  },
  {
    "display name": "Phoenix Sankara Nilayam",
    "name_te": "ఫీనిక్స్ శంకర నిలయం",
    "name_hi": "फीनिक्स शंकर निलयम",
    "name_ta": "பீனிக்ஸ் சங்கர நிலையம்",
    "name_kn": "ಫೀನಿಕ್ಸ್ ಶಂಕರ ನಿಲಯಂ",
    "name_ml": "ഫീനിക്സ് ശങ്കര നിലയം",
    "category": "ACCOMMODATION",
    "latitude": 16.0784568,
    "longitude": 78.8662128
  },
  {
    "display name": "Devathilakula Annadana Choultry",
    "name_te": "దేవతకుల అన్నదాన చౌల్ట్రీ",
    "name_hi": "देवथकुला अन्नदाना चौलट्री",
    "name_ta": "தேவதகுல அன்னதான சத்திரம்",
    "name_kn": "ದೇವತಕುಲ ಅನ್ನದಾನ ಚೌಲ್ಟ್ರಿ",
    "name_ml": "ദേവതകുല അന്നദാന ചൗൾട്രി",
    "category": "ACCOMMODATION",
    "latitude": 16.0771408,
    "longitude": 78.8666117
  },
  {
    "display name": "Ganga Block",
    "name_te": "గంగా బ్లాక్",
    "name_hi": "गंगा ब्लॉक",
    "name_ta": "கங்கா தொகுதி",
    "name_kn": "ಗಂಗಾ ಬ್ಲಾಕ್",
    "name_ml": "ഗംഗാ ബ്ലോക്ക്",
    "category": "ACCOMMODATION",
    "latitude": 16.0681121,
    "longitude": 78.8650195
  },
  {
    "display name": "Saraswati Block",
    "name_te": "సరస్వతి బ్లాక్",
    "name_hi": "सरस्वती ब्लॉक",
    "name_ta": "சரஸ்வதி தொகுதி",
    "name_kn": "ಸರಸ್ವತಿ ಬ್ಲಾಕ್",
    "name_ml": "സരസ്വതി ബ്ലോക്ക്",
    "category": "ACCOMMODATION",
    "latitude": 16.0675656,
    "longitude": 78.8651475
  },
  {
    "display name": "Ganesha Sadan",
    "name_te": "గణేశ సదన్",
    "name_hi": "गणेश सदन",
    "name_ta": "கணேஷா சதன்",
    "name_kn": "ಗಣೇಶ ಸದನ",
    "name_ml": "ഗണേശ സദൻ",
    "category": "ACCOMMODATION",
    "latitude": 16.0683198,
    "longitude": 78.8654832
  },
  {
    "display name": "Yadava Satram",
    "name_te": "యాదవ సత్రం",
    "name_hi": "यादवा सतराम",
    "name_ta": "யாதவ சத்திரம்",
    "name_kn": "ಯಾದವ ಸತ್ರಂ",
    "name_ml": "യാദവ സത്രം",
    "category": "ACCOMMODATION",
    "latitude": 16.0716542,
    "longitude": 78.8679341
  },
  {
    "display name": "Ganga Sadan",
    "name_te": "గంగా సదన్",
    "name_hi": "गंगा सदन",
    "name_ta": "கங்கா சதன்",
    "name_kn": "ಗಂಗಾ ಸದನ",
    "name_ml": "ഗംഗാ സദൻ",
    "category": "ACCOMMODATION",
    "latitude": 16.0719085,
    "longitude": 78.8719704
  },
  {
    "display name": "Lingayat Satram",
    "name_te": "లింగాయత్ సత్రం",
    "name_hi": "लिंगायत सतराम",
    "name_ta": "லிங்காயத் சத்திரம்",
    "name_kn": "ಲಿಂಗಾಯತ ಸತ್ರಂ",
    "name_ml": "ലിംഗായത്ത് സത്രം",
    "category": "ACCOMMODATION",
    "latitude": 16.0733934,
    "longitude": 78.8707064
  },
  {
    "display name": "Kshatriya Satram, Srisailam",
    "name_te": "క్షత్రియ సత్రం, శ్రీశైలం",
    "name_hi": "क्षत्रिय सतरम, श्रीशैलम",
    "name_ta": "க்ஷத்திரிய சத்திரம், ஸ்ரீசைலம்",
    "name_kn": "ಕ್ಷತ್ರಿಯ ಸತ್ರಂ, ಶ್ರೀಶೈಲಂ",
    "name_ml": "ക്ഷത്രിയ സത്രം, ശ്രീശൈലം",
    "category": "ACCOMMODATION",
    "latitude": 16.0757559,
    "longitude": 78.8714218
  },
  {
    "display name": "Velama Satram, Srisailam",
    "name_te": "వెలమ సత్రం, శ్రీశైలం",
    "name_hi": "वेलमा सतरम, श्रीशैलम",
    "name_ta": "வேலம சத்திரம், ஸ்ரீசைலம்",
    "name_kn": "ವೇಲಮ ಸತ್ರಂ, ಶ್ರೀಶೈಲಂ",
    "name_ml": "വേലാമ സത്രം, ശ്രീശൈലം",
    "category": "ACCOMMODATION",
    "latitude": 16.0703691,
    "longitude": 78.8748829
  },
  {
    "display name": "Reddy Satram",
    "name_te": "రెడ్డి సత్రం",
    "name_hi": "रेड्डी सतराम",
    "name_ta": "ரெட்டி சத்ரம்",
    "name_kn": "ರೆಡ್ಡಿ ಸತ್ರಂ",
    "name_ml": "റെഡ്ഡി സത്രം",
    "category": "ACCOMMODATION",
    "latitude": 16.0721494,
    "longitude": 78.8749251
  },
  {
    "display name": "Sri Purava Vamsha Mudiraj Rooms",
    "name_te": "శ్రీ పురవంశ ముదిరాజ్ రూములు",
    "name_hi": "श्री पुरवंश मुदिराज कक्ष",
    "name_ta": "ஸ்ரீ புரவம்ச முதிராஜ் அறைகள்",
    "name_kn": "ಶ್ರೀ ಪುರವಂಶ ಮುಧಿರಾಜ್ ರೂಮ್ಸ್",
    "name_ml": "ശ്രീ പുരവംശ മുദിരാജ് റൂമുകൾ",
    "category": "ACCOMMODATION",
    "latitude": 16.0762664,
    "longitude": 78.8740253
  },
  {
    "display name": "Sagara Or Uppara Satram",
    "name_te": "సాగర లేదా ఉప్పర సత్రం",
    "name_hi": "सागर या उप्परा सतरम",
    "name_ta": "சாகரா அல்லது உப்பாரா சத்திரம்",
    "name_kn": "ಸಾಗರ ಅಥವಾ ಉಪ್ಪಾರ ಸತ್ರಂ",
    "name_ml": "സാഗര ഓർ ഉപ്പാര സത്രം",
    "category": "ACCOMMODATION",
    "latitude": 16.0775532,
    "longitude": 78.8753933
  },
  {
    "display name": "Are Katika Satram",
    "name_te": "అరే కటిక సత్రం",
    "name_hi": "आर कटिका सतराम",
    "name_ta": "கடிகா சத்ரம் என்றால் என்ன?",
    "name_kn": "ಅರೆ ಕಟಿಕ ಸತ್ರಂ",
    "name_ml": "അരേ കതിക സത്രം",
    "category": "ACCOMMODATION",
    "latitude": 16.0693997,
    "longitude": 78.8740837
  },
  {
    "display name": "Akhila Bharata Arya Vysya Annapurna Satram",
    "name_te": "అఖిల భారత ఆర్య వైశ్య అన్నపూర్ణ సత్రం",
    "name_hi": "अखिला भारत आर्य वैश्य अन्नपूर्णा सत्रम्",
    "name_ta": "அகில பாரத ஆர்ய வைஸ்ய அன்னபூர்ணா சாத்திரம்",
    "name_kn": "ಅಖಿಲ ಭಾರತ ಆರ್ಯ ವೈಶ್ಯ ಅನ್ನಪೂರ್ಣ ಸತ್ರಮ್",
    "name_ml": "അഖില ഭാരത ആര്യ വൈശ്യ അന്നപൂർണ സത്രം",
    "category": "ACCOMMODATION",
    "latitude": 16.0735615,
    "longitude": 78.871538
  },
  {
    "display name": "Sri Sarana Basaweswara Sadasivaah Anna Satram",
    "name_te": "శ్రీ శరణ బసవేశ్వర సదాశివ అన్నసత్రం",
    "name_hi": "श्री शरण बसवेश्वर सदाशिवः अन्न सत्रम्",
    "name_ta": "ஸ்ரீ சரண பசவேஸ்வர சதாசிவ அன்ன சத்ரம்",
    "name_kn": "ಶ್ರೀ ಶರಣ ಬಸವೇಶ್ವರ ಸದಾಶಿವ ಅನ್ನ ಸತ್ರ",
    "name_ml": "ശ്രീ ശരണ ബസവേശ്വര സദാശിവ അന്ന സത്രം",
    "category": "ACCOMMODATION",
    "latitude": 16.0741573,
    "longitude": 78.8720633
  },
  {
    "display name": "Sri Chowdeshwari Annadana Satram, Srisailam",
    "name_te": "శ్రీ చౌడేశ్వరి అన్నదాన సత్రం, శ్రీశైలం",
    "name_hi": "श्री चौदेश्वरी अन्नदान सत्रम, श्रीशैलम",
    "name_ta": "ஸ்ரீ சௌடேஸ்வரி அன்னதான சத்திரம், ஸ்ரீசைலம்",
    "name_kn": "ಶ್ರೀ ಚೌಡೇಶ್ವರಿ ಅನ್ನದಾನ ಸತ್ರಂ, ಶ್ರೀಶೈಲಂ",
    "name_ml": "ശ്രീ ചൗഡേശ്വരി അന്നദാന സത്രം, ശ്രീശൈലം",
    "category": "ACCOMMODATION",
    "latitude": 16.0695648,
    "longitude": 78.8724861
  },
  {
    "display name": "Padmashali Satram",
    "name_te": "పద్మశాలి సత్రం",
    "name_hi": "पद्मशाली सतरम",
    "name_ta": "பத்மஷாலி சத்திரம்",
    "name_kn": "ಪದ್ಮಶಾಲಿ ಸತ್ರಂ",
    "name_ml": "പദ്മശാലി സത്രം",
    "category": "ACCOMMODATION",
    "latitude": 16.0732906,
    "longitude": 78.8743137
  },
  {
    "display name": "Koundinya Gowda Satram",
    "name_te": "కౌండిన్య గౌడ సత్రం",
    "name_hi": "कौंडिन्य गौड़ा सतराम",
    "name_ta": "கவுண்டின்ய கவுடா சத்திரம்",
    "name_kn": "ಕೌಂಡಿನ್ಯ ಗೌಡ ಸತ್ರಂ",
    "name_ml": "കൗണ്ടിന്യ ഗൗഡ സത്രം",
    "category": "ACCOMMODATION",
    "latitude": 16.0732024,
    "longitude": 78.8750013
  },
  {
    "display name": "Kakatiya Anna Satra Sangam",
    "name_te": "కాకతీయ అన్న సత్రం సంగమం",
    "name_hi": "काकतीय अन्न सत्र संगम",
    "name_ta": "காகதீய அண்ணா சத்ர சங்கம்",
    "name_kn": "ಕಾಕತೀಯ ಅನ್ನಸತ್ರ ಸಂಗಮ",
    "name_ml": "കാകതീയ അന്ന സത്ര സംഘം",
    "category": "ACCOMMODATION",
    "latitude": 16.0729056,
    "longitude": 78.8750083
  },
  {
    "display name": "Neelam Sanjeeva Reddy Bhavan",
    "name_te": "నీలం సంజీవ రెడ్డి భవన్",
    "name_hi": "नीलम संजीव रेड्डी भवन",
    "name_ta": "நீலம் சஞ்சீவ ரெட்டி பவன்",
    "name_kn": "ನೀಲಂ ಸಂಜೀವ ರೆಡ್ಡಿ ಭವನ",
    "name_ml": "നീലം സഞ്ജീവ റെഡ്ഡി ഭവൻ",
    "category": "ACCOMMODATION",
    "latitude": 16.0723635,
    "longitude": 78.8761001
  },
  {
    "display name": "Sri Mallikarjuna Annasatra Sangam & T.G. Lakshmi Venkatesh Bhavan",
    "name_te": "శ్రీ మల్లికార్జున అన్నసత్ర సంఘం & T.G. లక్ష్మీ వెంకటేష్ భవన్",
    "name_hi": "श्री मल्लिकार्जुन अन्नसत्र संगम एवं टी.जी. लक्ष्मी वेंकटेश भवन",
    "name_ta": "ஸ்ரீ மல்லிகார்ஜுன அன்னசத்ர சங்கம் & டி.ஜி. லட்சுமி வெங்கடேஷ் பவன்",
    "name_kn": "ಶ್ರೀ ಮಲ್ಲಿಕಾರ್ಜುನ ಅನ್ನಸತ್ರ ಸಂಗಮ & ಟಿ.ಜಿ. ಲಕ್ಷ್ಮಿ ವೆಂಕಟೇಶ ಭವನ",
    "name_ml": "ശ്രീ മല്ലികാർജുന അന്നസത്ര സംഘം & ടി.ജി. ലക്ഷ്മി വെങ്കിടേഷ് ഭവൻ",
    "category": "ACCOMMODATION",
    "latitude": 16.0770079,
    "longitude": 78.8748782
  },
  {
    "display name": "Pathaleswara Sadanam",
    "name_te": "పాతాలేశ్వర సదనం",
    "name_hi": "पथलेश्वर सदनम",
    "name_ta": "பாதாளேஸ்வர சாதனம்",
    "name_kn": "ಪಾಠಲೇಶ್ವರ ಸದನಂ",
    "name_ml": "പാതാളേശ്വര സദനം",
    "category": "ACCOMMODATION",
    "latitude": 16.0788019,
    "longitude": 78.8769126
  },
  {
    "display name": "Akhila Bharata Vaddera Srisaila Kshetra Vidya Raja (Vaddu)",
    "name_te": "అఖిల భారత వడ్డెర శ్రీశైలం క్షేత్ర విద్యా రాజా (వడ్డు)",
    "name_hi": "अखिला भारत वड्डेरा श्रीशैल क्षेत्र विद्या राजा (वड्डू)",
    "name_ta": "அகில இந்திய வட்டேர ஸ்ரீசைலம் க்ஷேத்ர வித்யா ராஜா (வட்து)",
    "name_kn": "ಅಖಿಲ ಭಾರತ ವಡ್ಡೆರ ಶ್ರೀಶೈಲಂ ಕ್ಷೇತ್ರ ವಿದ್ಯಾ ರಾಜ (ವಡ್ಡು)",
    "name_ml": "അഖില ഭാരത വഡ്ഡെര ശ്രീശൈലം ക്ഷേത്ര വിദ്യാ രാജ (വഡ്ഡു)",
    "category": "ACCOMMODATION",
    "latitude": 16.070106,
    "longitude": 78.868794
  },
  {
    "display name": "Karnabhaktula Sevasadan",
    "name_te": "కర్ణభక్తుల సేవాసదన్",
    "name_hi": "कर्णभक्तुला सेवासदन",
    "name_ta": "கர்ணபக்துலா சேவாசதன்",
    "name_kn": "ಕರ್ಣಭಕ್ತುಲ ಸೇವಾಸದನ",
    "name_ml": "കർണഭക്തുല സേവാസദൻ",
    "category": "ACCOMMODATION",
    "latitude": 16.0722667,
    "longitude": 78.8739851
  },
  {
    "display name": "Sri Krishna Devaraya Kapu Satram & Charitable Trust",
    "name_te": "శ్రీ కృష్ణ దేవరాయ కాపు సత్రం & ఛారిటబుల్ ట్రస్ట్",
    "name_hi": "श्री कृष्ण देवराय कापू सतराम और चैरिटेबल ट्रस्ट",
    "name_ta": "ஸ்ரீ கிருஷ்ண தேவராய கபு சத்திரம் & அறக்கட்டளை",
    "name_kn": "ಶ್ರೀ ಕೃಷ್ಣ ದೇವರಾಯ ಕಾಪು ಸತ್ರಂ & ಚಾರಿಟೇಬಲ್ ಟ್ರಸ್ಟ್",
    "name_ml": "ശ്രീകൃഷ്ണ ദേവരായ കാപ്പു സത്രം & ചാരിറ്റബിൾ ട്രസ്റ്റ്",
    "category": "ACCOMMODATION",
    "latitude": 16.07181,
    "longitude": 78.8749
  },
  {
    "display name": "Uma Ramalingeswara Devanga Satram",
    "name_te": "ఉమా రామలింగేశ్వర దేవాంగ సత్రం",
    "name_hi": "उमा रामलिंगेश्वर देवंगा सत्रम",
    "name_ta": "உமா ராமலிங்கேஸ்வர தேவாங்க சத்திரம்",
    "name_kn": "ಉಮಾ ರಾಮಲಿಂಗೇಶ್ವರ ದೇವಾಂಗ ಸತ್ರಂ",
    "name_ml": "ഉമാ രാമലിംഗേശ്വര ദേവാംഗ സത്രം",
    "category": "ACCOMMODATION",
    "latitude": 16.07219,
    "longitude": 78.87371
  },
  {
    "display name": "Akhila Bharata Srisaila Shalivahana Kummara Satram",
    "name_te": "అఖిల భారత శ్రీశైల శాలివాహన కుమ్మర సత్రం",
    "name_hi": "अखिला भरत श्रीशैल शालिवाहन कुम्मारा सत्रम्",
    "name_ta": "அகில பரத ஸ்ரீசைல ஷாலிவாஹன கும்மர சத்ரம்",
    "name_kn": "ಅಖಿಲ ಭಾರತ ಶ್ರೀಶೈಲ ಶಾಲಿವಾಹನ ಕುಮ್ಮರ ಸತ್ರಂ",
    "name_ml": "അഖില ഭരത ശ്രീശൈല ശാലിവാഹന കുമ്മാര സത്രം",
    "category": "ACCOMMODATION",
    "latitude": 16.07816,
    "longitude": 78.87603
  },
  {
    "display name": "Srisailam Dam",
    "name_te": "శ్రీశైలం ఆనకట్ట",
    "name_hi": "श्रीशैलम बांध",
    "name_ta": "ஸ்ரீசைலம் அணை",
    "name_kn": "ಶ್ರೀಶೈಲಂ ಅಣೆಕಟ್ಟು",
    "name_ml": "ശ്രീശൈലം അണക്കെട്ട്",
    "category": "TOURIST_SPOT",
    "latitude": 16.0867662,
    "longitude": 78.8965489
  },
  {
    "display name": "Srisailam Dam View Point",
    "name_te": "శ్రీశైలం ఆనకట్ట వ్యూ పాయింట్",
    "name_hi": "श्रीशैलम बांध व्यू पॉइंट",
    "name_ta": "ஸ்ரீசைலம் அணை காட்சி முனை",
    "name_kn": "ಶ್ರೀಶೈಲಂ ಅಣೆಕಟ್ಟು ವೀಕ್ಷಣಾ ಸ್ಥಳ",
    "name_ml": "ശ്രീശൈലം ഡാം വ്യൂ പോയിന്റ്",
    "category": "TOURIST_SPOT",
    "latitude": 16.0856883,
    "longitude": 78.8995817
  },
  {
    "display name": "Srisailam Dam Famous View Point",
    "name_te": "శ్రీశైలం ఆనకట్ట ప్రసిద్ధ వ్యూ పాయింట్",
    "name_hi": "श्रीशैलम बांध का प्रसिद्ध व्यू पॉइंट",
    "name_ta": "ஸ்ரீசைலம் அணையின் பிரபலமான காட்சி முனை",
    "name_kn": "ಶ್ರೀಶೈಲಂ ಅಣೆಕಟ್ಟು ಪ್ರಸಿದ್ಧ ವೀಕ್ಷಣಾ ತಾಣ",
    "name_ml": "ശ്രീശൈലം ഡാം പ്രശസ്തമായ വ്യൂ പോയിന്റ്",
    "category": "TOURIST_SPOT",
    "latitude": 16.0882365,
    "longitude": 78.8953315
  },
  {
    "display name": "Srisailam Reservoir View Point",
    "name_te": "శ్రీశైలం జలాశయం వ్యూ పాయింట్",
    "name_hi": "श्रीसैलम जलाशय दृश्य बिंदु",
    "name_ta": "ஸ்ரீசைலம் நீர்த்தேக்கக் காட்சி முனை",
    "name_kn": "ಶ್ರೀಶೈಲಂ ಜಲಾಶಯದ ವೀಕ್ಷಣಾ ಸ್ಥಳ",
    "name_ml": "ശ്രീശൈലം റിസർവോയർ വ്യൂ പോയിന്റ്",
    "category": "TOURIST_SPOT",
    "latitude": 16.0869186,
    "longitude": 78.896511
  },
  {
    "display name": "Pathalaganga, Srisailam",
    "name_te": "పాతాలగంగ, శ్రీశైలం",
    "name_hi": "पथलगंगा, श्रीशैलम",
    "name_ta": "பாதாளகங்கா, ஸ்ரீசைலம்",
    "name_kn": "ಪಾತಾಳಗಂಗಾ, ಶ್ರೀಶೈಲಂ",
    "name_ml": "പാതലഗംഗ, ശ്രീശൈലം",
    "category": "TOURIST_SPOT",
    "latitude": 16.0803183,
    "longitude": 78.8815862
  },
  {
    "display name": "Pathala Ganga Pitru Program",
    "name_te": "పాతాల గంగా పితృ కార్యక్రమం",
    "name_hi": "पथाला गंगा पितृ कार्यक्रम",
    "name_ta": "பாதாள கங்கை பித்ரு திட்டம்",
    "name_kn": "ಪಾತಾಳ ಗಂಗಾ ಪಿತೃ ಕಾರ್ಯಕ್ರಮ",
    "name_ml": "പാതാള ഗംഗാ പിതൃ പരിപാടി",
    "category": "TOURIST_SPOT",
    "latitude": 16.0802859,
    "longitude": 78.881227
  },
  {
    "display name": "Srisailam Project View Point – Pathalaganga Steps",
    "name_te": "శ్రీశైలం ప్రాజెక్ట్ వ్యూ పాయింట్ - పాతాళగంగ స్టెప్స్",
    "name_hi": "श्रीशैलम परियोजना दृश्य बिंदु - पत्थलगंगा सीढ़ियाँ",
    "name_ta": "ஸ்ரீசைலம் திட்டக் காட்சிப் புள்ளி - பாதலகங்கா படிகள்",
    "name_kn": "ಶ್ರೀಶೈಲಂ ಪ್ರಾಜೆಕ್ಟ್ ವ್ಯೂ ಪಾಯಿಂಟ್ - ಪಾತಾಳಗಂಗಾ ಹಂತಗಳು",
    "name_ml": "ശ്രീശൈലം പ്രോജക്ട് വ്യൂ പോയിൻ്റ് - പാതാളഗംഗ പടികൾ",
    "category": "TOURIST_SPOT",
    "latitude": 16.0799227,
    "longitude": 78.8802444
  },
  {
    "display name": "Krishna River Front",
    "name_te": "కృష్ణా నది ఎదురుగా",
    "name_hi": "कृष्णा नदी तट",
    "name_ta": "கிருஷ்ணா நதிக்கரை",
    "name_kn": "ಕೃಷ್ಣಾ ನದಿ ದಂಡೆ",
    "name_ml": "കൃഷ്ണ നദിക്കര",
    "category": "TOURIST_SPOT",
    "latitude": 16.0808009,
    "longitude": 78.8810906
  },
  {
    "display name": "Krishna River Boat Point",
    "name_te": "కృష్ణా నది బోట్ పాయింట్",
    "name_hi": "कृष्णा नदी नौका बिंदु",
    "name_ta": "கிருஷ்ணா நதி படகு முனையம்",
    "name_kn": "ಕೃಷ್ಣಾ ನದಿ ದೋಣಿ ವಿಹಾರ ತಾಣ",
    "name_ml": "കൃഷ്ണ നദി ബോട്ട് പോയിന്റ്",
    "category": "TOURIST_SPOT",
    "latitude": 16.0804166,
    "longitude": 78.8814899
  },
  {
    "display name": "View Point, Krishna River",
    "name_te": "వ్యూ పాయింట్, కృష్ణా నది",
    "name_hi": "दृश्य बिंदु, कृष्णा नदी",
    "name_ta": "காட்சி முனை, கிருஷ்ணா நதி",
    "name_kn": "ವೀಕ್ಷಣಾ ಸ್ಥಳ, ಕೃಷ್ಣಾ ನದಿ",
    "name_ml": "വ്യൂ പോയിന്റ്, കൃഷ്ണ നദി",
    "category": "TOURIST_SPOT",
    "latitude": 16.0779239,
    "longitude": 78.8783045
  },
  {
    "display name": "APTDC Ropeway",
    "name_te": "APTDC రోప్‌వే",
    "name_hi": "एपीटीडीसी रोपवे",
    "name_ta": "APTDC கேபிள் கார்",
    "name_kn": "APTDC ಕೇಬಲ್ ಕಾರ್",
    "name_ml": "APTDC കേബിൾ കാർ",
    "category": "TOURIST_SPOT",
    "latitude": 16.079318,
    "longitude": 78.877529
  },
  {
    "display name": "APTDC Krishna River Ropeway Station",
    "name_te": "APTDC కృష్ణ నది రోప్‌వే స్టేషన్",
    "name_hi": "एपीटीडीसी कृष्णा नदी रोपवे स्टेशन",
    "name_ta": "APTDC கிருஷ்ணா நதி கேபிள் கார் நிலையம்",
    "name_kn": "APTDC ಕೃಷ್ಣಾ ನದಿ ರೋಪ್‌ವೇ ನಿಲ್ದಾಣ",
    "name_ml": "എപിടിഡിസി കൃഷ്ണ നദി റോപ്‌വേ സ്റ്റേഷൻ",
    "category": "TOURIST_SPOT",
    "latitude": 16.0808886,
    "longitude": 78.8796303
  },
  {
    "display name": "APTDC Ropeway & Boating Ticket Counter",
    "name_te": "APTDC రోప్‌వే & బోటింగ్ టికెట్ కౌంటర్",
    "name_hi": "APTDC रोपवे और नौका विहार टिकट काउंटर",
    "name_ta": "APTDC கேபிள் கார் & படகு டிக்கெட் கவுண்டர்",
    "name_kn": "APTDC ಕೇಬಲ್ ಕಾರ್ & ಬೋಟಿಂಗ್ ಟಿಕೆಟ್ ಕೌಂಟರ್",
    "name_ml": "APTDC കേബിൾ കാർ & ബോട്ടിംഗ് ടിക്കറ്റ് കൗണ്ടർ",
    "category": "TOURIST_SPOT",
    "latitude": 16.0792503,
    "longitude": 78.8774197
  },
  {
    "display name": "AP Tourism Boating Point",
    "name_te": "AP టూరిజం బోటింగ్ పాయింట్",
    "name_hi": "एपी टूरिज्म बोटिंग पॉइंट",
    "name_ta": "ஏபி சுற்றுலா படகு முனையம்",
    "name_kn": "ಎಪಿ ಪ್ರವಾಸೋದ್ಯಮ ದೋಣಿ ವಿಹಾರ ತಾಣ",
    "name_ml": "എപി ടൂറിസം ബോട്ടിംഗ് പോയിന്റ്",
    "category": "TOURIST_SPOT",
    "latitude": 16.0811234,
    "longitude": 78.8796888
  },
  {
    "display name": "APTDC Boating Point",
    "name_te": "APTDC బోటింగ్ పాయింట్",
    "name_hi": "एपीटीडीसी बोटिंग पॉइंट",
    "name_ta": "APTDC படகு முனையம்",
    "name_kn": "ಎಪಿಟಿಡಿಸಿ ಬೋಟಿಂಗ್ ಪಾಯಿಂಟ್",
    "name_ml": "എ.പി.ടി.ഡി.സി ബോട്ടിംഗ് പോയിന്റ്",
    "category": "TOURIST_SPOT",
    "latitude": 16.0808695,
    "longitude": 78.8801586
  },
  {
    "display name": "Boating Point",
    "name_te": "బోటింగ్ పాయింట్",
    "name_hi": "नौका विहार स्थल",
    "name_ta": "படகு சவாரி மையம்",
    "name_kn": "ದೋಣಿ ವಿಹಾರ ತಾಣ",
    "name_ml": "ബോട്ടിംഗ് പോയിന്റ്",
    "category": "TOURIST_SPOT",
    "latitude": 16.0805313,
    "longitude": 78.8815557
  },
  {
    "display name": "Boating Platform",
    "name_te": "బోటింగ్ ప్లాట్‌ఫామ్",
    "name_hi": "नौका विहार मंच",
    "name_ta": "படகு சவாரி தளம்",
    "name_kn": "ದೋಣಿ ವಿಹಾರ ವೇದಿಕೆ",
    "name_ml": "ബോട്ടിംഗ് പ്ലാറ്റ്‌ഫോം",
    "category": "TOURIST_SPOT",
    "latitude": 16.0811952,
    "longitude": 78.880175
  },
  {
    "display name": "Boating View Point 1, Srisailam (SBZ)",
    "name_te": "బోటింగ్ వ్యూ పాయింట్ 1, శ్రీశైలం (SBZ)",
    "name_hi": "बोटिंग व्यू प्वाइंट 1, श्रीशैलम (एसबीजेड)",
    "name_ta": "படகு சவாரி காட்சி புள்ளி 1, ஸ்ரீசைலம் (SBZ)",
    "name_kn": "ಬೋಟಿಂಗ್ ವ್ಯೂ ಪಾಯಿಂಟ್ 1, ಶ್ರೀಶೈಲಂ (SBZ)",
    "name_ml": "ബോട്ടിംഗ് വ്യൂ പോയിൻ്റ് 1, ശ്രീശൈലം (SBZ)",
    "category": "TOURIST_SPOT",
    "latitude": 16.0811356,
    "longitude": 78.8800493
  },
  {
    "display name": "Akkamahadevi Caves (Ticket Counter)",
    "name_te": "అక్కమహాదేవి గుహలు (టికెట్ కౌంటర్)",
    "name_hi": "अक्कमहादेवी गुफाएं (टिकट काउंटर)",
    "name_ta": "அக்கமஹாதேவி குகைகள் (டிக்கெட் கவுண்டர்)",
    "name_kn": "ಅಕ್ಕಮಹಾದೇವಿ ಗುಹೆಗಳು (ಟಿಕೆಟ್ ಕೌಂಟರ್)",
    "name_ml": "അക്കമഹാദേവി ഗുഹകൾ (ടിക്കറ്റ് കൗണ്ടർ)",
    "category": "TOURIST_SPOT",
    "latitude": 16.0792903,
    "longitude": 78.8772594
  },
  {
    "display name": "Rudravanam Park",
    "name_te": "రుద్రవనం పార్క్",
    "name_hi": "रुद्रवनम पार्क",
    "name_ta": "ருத்ரவனம் பூங்கா",
    "name_kn": "ರುದ್ರವನಂ ಪಾರ್ಕ್",
    "name_ml": "രുദ്രവനം പാർക്ക്",
    "category": "TOURIST_SPOT",
    "latitude": 16.078867,
    "longitude": 78.8708045
  },
  {
    "display name": "Srisaila Devasthanam Park",
    "name_te": "శ్రీశైల దేవస్థానం పార్క్",
    "name_hi": "श्रीशैल देवस्थानम पार्क",
    "name_ta": "ஸ்ரீசைல தேவஸ்தான பூங்கா",
    "name_kn": "ಶ್ರೀಶೈಲ ದೇವಸ್ಥಾನಂ ಪಾರ್ಕ್",
    "name_ml": "ശ്രീശൈല ദേവസ്ഥാനം പാർക്ക്",
    "category": "TOURIST_SPOT",
    "latitude": 16.0727989,
    "longitude": 78.8675463
  },
  {
    "display name": "Srisailam Park Near Temple Pond (E-Toilets)",
    "name_te": "ఆలయ చెరువు దగ్గర శ్రీశైలం పార్క్ (ఈ-టాయిలెట్లు)",
    "name_hi": "मंदिर तालाब के पास श्रीशैलम पार्क (ई-शौचालय)",
    "name_ta": "கோவில் குளத்திற்கு அருகில் உள்ள ஸ்ரீசைலம் பூங்கா (இ-டாய்லெட்ஸ்)",
    "name_kn": "ಶ್ರೀಶೈಲಂ ಪಾರ್ಕ್ ದೇವಸ್ಥಾನದ ಕೊಳದ ಹತ್ತಿರ (ಇ-ಶೌಚಾಲಯಗಳು)",
    "name_ml": "ക്ഷേത്രക്കുളത്തിന് സമീപമുള്ള ശ്രീശൈലം പാർക്ക് (ഇ-ടോയ്‌ലെറ്റുകൾ)",
    "category": "TOURIST_SPOT",
    "latitude": 16.0746635,
    "longitude": 78.8699513
  },
  {
    "display name": "Srisaila Theme Parks",
    "name_te": "శ్రీశైల థీమ్ పార్కులు",
    "name_hi": "श्रीसैला थीम पार्क",
    "name_ta": "ஸ்ரீசைலம் தீம் பூங்காக்கள்",
    "name_kn": "ಶ್ರೀಶೈಲಂ ಥೀಮ್ ಪಾರ್ಕ್‌ಗಳು",
    "name_ml": "ശ്രീശൈലം തീം പാർക്കുകൾ",
    "category": "TOURIST_SPOT",
    "latitude": 16.0690381,
    "longitude": 78.8717919
  },
  {
    "display name": "Nandhi Park",
    "name_te": "నంది పార్క్",
    "name_hi": "नंदी पार्क",
    "name_ta": "நந்தி பூங்கா",
    "name_kn": "ನಂದಿ ಪಾರ್ಕ್",
    "name_ml": "നന്ദി പാർക്ക്",
    "category": "TOURIST_SPOT",
    "latitude": 16.0694539,
    "longitude": 78.8708328
  },
  {
    "display name": "Balaganesha Vanam",
    "name_te": "బాలగణేశ వనం",
    "name_hi": "बालगणेश वनम",
    "name_ta": "பாலகணேச வனம்",
    "name_kn": "ಬಾಲಗಣೇಶ ವನಂ",
    "name_ml": "ബാലഗണേശ വനം",
    "category": "TOURIST_SPOT",
    "latitude": 16.0712833,
    "longitude": 78.8732433
  },
  {
    "display name": "Basava Vanam",
    "name_te": "బసవ వనం",
    "name_hi": "बसवा वनम",
    "name_ta": "பசவ வனம்",
    "name_kn": "ಬಸವ ವನಂ",
    "name_ml": "ബസവ വനം",
    "category": "TOURIST_SPOT",
    "latitude": 16.070364,
    "longitude": 78.8709968
  },
  {
    "display name": "Bhramaramba Gardens",
    "name_te": "భ్రమరాంబ తోటలు",
    "name_hi": "भ्रमरम्बा गार्डन",
    "name_ta": "பிரம்மராம்பா தோட்டங்கள்",
    "name_kn": "ಭ್ರಮರಾಂಬ ಉದ್ಯಾನಗಳು",
    "name_ml": "ഭ്രമരംബ ഉദ്യാനങ്ങൾ",
    "category": "TOURIST_SPOT",
    "latitude": 16.0699242,
    "longitude": 78.8701683
  },
  {
    "display name": "Sri Parvatha Vanam",
    "name_te": "శ్రీ పర్వత వనం",
    "name_hi": "श्री पर्वत वनम",
    "name_ta": "ஸ்ரீ பர்வத வனம்",
    "name_kn": "ಶ್ರೀ ಪರ್ವತ ವನಂ",
    "name_ml": "ശ്രീ പർവത വനം",
    "category": "TOURIST_SPOT",
    "latitude": 16.07427,
    "longitude": 78.8697134
  },
  {
    "display name": "Srisailam Rock Garden",
    "name_te": "శ్రీశైలం రాక్ గార్డెన్",
    "name_hi": "श्रीशैलम रॉक गार्डन",
    "name_ta": "ஸ்ரீசைலம் பாறைத் தோட்டம்",
    "name_kn": "ಶ್ರೀಶೈಲಂ ರಾಕ್ ಗಾರ್ಡನ್",
    "name_ml": "ശ്രീശൈലം റോക്ക് ഗാർഡൻ",
    "category": "TOURIST_SPOT",
    "latitude": 16.0700962,
    "longitude": 78.8711881
  },
  {
    "display name": "Srisailam Best Waterfalls",
    "name_te": "శ్రీశైలం ఉత్తమ జలపాతాలు",
    "name_hi": "श्रीशैलम के सर्वश्रेष्ठ जलप्रपात",
    "name_ta": "ஸ்ரீசைலம் சிறந்த நீர்வீழ்ச்சிகள்",
    "name_kn": "ಶ್ರೀಶೈಲಂನ ಅತ್ಯುತ್ತಮ ಜಲಪಾತಗಳು",
    "name_ml": "ശ്രീശൈലം വെള്ളച്ചാട്ടങ്ങൾ",
    "category": "TOURIST_SPOT",
    "latitude": 16.0766509,
    "longitude": 78.8708912
  },
  {
    "display name": "Siddi Ramappa Kolanu",
    "name_te": "సిద్ది రామప్ప కొలను",
    "name_hi": "सिद्दी रामप्पा कोलानु",
    "name_ta": "சித்தி ராமப்பா கொலானு",
    "name_kn": "ಸಿದ್ದಿ ರಾಮಪ್ಪ ಕೊಲನು",
    "name_ml": "സിദ്ദി രാമപ്പ കൊളാനു",
    "category": "TOURIST_SPOT",
    "latitude": 16.0761618,
    "longitude": 78.8709613
  },
  {
    "display name": "Paladhara–Panchadhara",
    "name_te": "పలధార–పంచధార",
    "name_hi": "पलाधारा-पंचधारा",
    "name_ta": "பலதார–பஞ்சதார",
    "name_kn": "ಪಲಾಧಾರ–ಪಂಚಧಾರ",
    "name_ml": "പാലാധാര–പഞ്ചാധാര",
    "category": "TOURIST_SPOT",
    "latitude": 16.0532486,
    "longitude": 78.8910292
  },
  {
    "display name": "Chenchu Lakshmi Tribal Museum",
    "name_te": "చెంచు లక్ష్మి గిరిజన మ్యూజియం",
    "name_hi": "चेनचू लक्ष्मी जनजातीय संग्रहालय",
    "name_ta": "செஞ்சு லட்சுமி பழங்குடி அருங்காட்சியகம்",
    "name_kn": "ಚೆಂಚು ಲಕ್ಷ್ಮಿ ಬುಡಕಟ್ಟು ವಸ್ತು ಸಂಗ್ರಹಾಲಯ",
    "name_ml": "ചെഞ്ചു ലക്ഷ്മി ട്രൈബൽ മ്യൂസിയം",
    "category": "TOURIST_SPOT",
    "latitude": 16.0694755,
    "longitude": 78.8714984
  },
  {
    "display name": "Siva Parvathi Statue",
    "name_te": "శివ పార్వతి విగ్రహం",
    "name_hi": "शिव पार्वती प्रतिमा",
    "name_ta": "சிவன் பார்வதி சிலை",
    "name_kn": "ಶಿವ ಪಾರ್ವತಿ ಪ್ರತಿಮೆ",
    "name_ml": "ശിവപാർവ്വതി പ്രതിമ",
    "category": "TOURIST_SPOT",
    "latitude": 16.0695293,
    "longitude": 78.8704067
  },
  {
    "display name": "Amphitheatre",
    "name_te": "యాంఫిథియేటర్",
    "name_hi": "अम्फीथिएटर",
    "name_ta": "அம்பிதியேட்டர்",
    "name_kn": "ಅಂಫಿಥಿಯೇಟರ್",
    "name_ml": "ആംഫിതിയേറ്റർ",
    "category": "TOURIST_SPOT",
    "latitude": 16.0789012,
    "longitude": 78.8623872
  },
  {
    "display name": "MSK Local Tour Sightseeing",
    "name_te": "MSK లోకల్ టూర్ సైట్ సీయింగ్",
    "name_hi": "एमएसके स्थानीय भ्रमण दर्शनीय स्थल",
    "name_ta": "எம்.எஸ்.கே உள்ளூர் சுற்றுலா சுற்றுலா",
    "name_kn": "MSK ಸ್ಥಳೀಯ ಪ್ರವಾಸ ದೃಶ್ಯವೀಕ್ಷಣೆ",
    "name_ml": "എം.എസ്.കെ ലോക്കൽ ടൂർ കാഴ്ചകൾ കാണൽ",
    "category": "TOURIST_SPOT",
    "latitude": 16.0710126,
    "longitude": 78.8725566
  },
  {
    "display name": "Cloak Room Fountain",
    "name_te": "క్లోక్ రూమ్ ఫౌంటెన్",
    "name_hi": "क्लोकरूम फव्वारा",
    "name_ta": "ஆடை அறை நீரூற்று",
    "name_kn": "ಕ್ಲೋಕ್ ರೂಮ್ ಫೌಂಟೇನ್",
    "name_ml": "ക്ലോക്ക് റൂം ഫൗണ്ടൻ",
    "category": "TOURIST_SPOT",
    "latitude": 16.0723934,
    "longitude": 78.8699504
  },
  {
    "display name": "APTDC Restaurant",
    "name_te": "ఎ.పీ.టి.డి.సి. రెస్టారెంట్",
    "name_hi": "ए.पी.टी.डी.सी. रेस्टोरेंट",
    "name_ta": "எ.பி.டி.டி.சி. உணவகம்",
    "name_kn": "ಎ.ಪಿ.ಟಿ.ಡಿ.ಸಿ. ರೆಸ್ಟಾರೆಂಟ್",
    "name_ml": "എ.പി.റ്റി.ഡി.സി. റെസ്റ്റോറന്റ്",
    "category": "FOOD",
    "latitude": 16.0714947,
    "longitude": 78.8699388
  },
  {
    "display name": "Trishul Family Restaurant",
    "name_te": "త్రిశూల్ ఫ్యామలి రెస్టారెంట్",
    "name_hi": "त्रिशूल फैमिली रेस्टोरेंट",
    "name_ta": "திரிஷுல் ஃபேமலி ரெஸ்டிராண்ட்",
    "name_kn": "ತ್ರಿಶೂಲ್ ಫ್ಯಾಮಲಿ ರೆಸ್ಟೋರೆಂಟ್",
    "name_ml": "ത്രിശൂൽ ഫ്യാമലി രെസ്ട്രംറ്റ്",
    "category": "FOOD",
    "latitude": 16.0710691,
    "longitude": 78.8717381
  },
  {
    "display name": "Hotel Sahasra",
    "name_te": "హోటల్ సహస్ర",
    "name_hi": "होटल सहस्रा",
    "name_ta": "ஹோட்டல் சஹஸ்ரா",
    "name_kn": "ಹೋಟಲ್‌ ಸಹಸ್ರಾ",
    "name_ml": "ഹോട്ടൽ സഹസ്ര",
    "category": "FOOD",
    "latitude": 16.0749069,
    "longitude": 78.8727013
  },
  {
    "display name": "Hotel Sravani",
    "name_te": "హోటల్ శ్రావణి",
    "name_hi": "होटल श्रावणी",
    "name_ta": "ஹோட்டல் ஸ்ரவாணி",
    "name_kn": "ಹೋಟಲ್‌ ಶ್ರಾವಣಿ",
    "name_ml": "ഹോട്ടൽ ശ്രാവണി",
    "category": "FOOD",
    "latitude": 16.0735765,
    "longitude": 78.8747529
  },
  {
    "display name": "Hotel Manjunath",
    "name_te": "హోటల్ మంజునాథ్",
    "name_hi": "होटल मंजुनाथ",
    "name_ta": "ஹோட்டல் மஞ்சுநாத்",
    "name_kn": "ಹೋಟಲ್‌ ಮಂಜುನಾಥ್",
    "name_ml": "ഹോട്ടൽ മഞ്ജുനാഥ്",
    "category": "FOOD",
    "latitude": 16.0735013,
    "longitude": 78.8753217
  },
  {
    "display name": "Hotel Apoorva",
    "name_te": "హోటల్ అపూర్వా",
    "name_hi": "होटल अपूर्वा",
    "name_ta": "ஹோட்டல் அபூர்வா",
    "name_kn": "ಹೋಟಲ್‌ ಅಪೂರ್ವಾ",
    "name_ml": "ഹോട്ടൽ അപൂർവ",
    "category": "FOOD",
    "latitude": 16.0723111,
    "longitude": 78.8723451
  },
  {
    "display name": "Hotel Sai Balaji",
    "name_te": "హోటల్ సై బాలాజి",
    "name_hi": "होटल साई बालाजी",
    "name_ta": "ஹோட்டல் சாய் பாலாஜி",
    "name_kn": "ಹೋಟಲ್‌ ಸೈ ಬಾಲಾಜಿ",
    "name_ml": "ഹോട്ടൽ സൈ ബാലാജി",
    "category": "FOOD",
    "latitude": 16.0725625,
    "longitude": 78.8724375
  },
  {
    "display name": "Hotel Ilapuram",
    "name_te": "హోటల్ ఇలాపురం",
    "name_hi": "होटल इलापुरम",
    "name_ta": "ஹோட்டல் இலபுரம்",
    "name_kn": "ಹೋಟಲ್‌ ಇಲಾಪುರಮ್",
    "name_ml": "ഹോട്ടൽ ഇലപുരം",
    "category": "FOOD",
    "latitude": 16.0719775,
    "longitude": 78.8723502
  },
  {
    "display name": "Hotel Krishnaveni Darshan",
    "name_te": "హోటల్ కృష్ణవేణి దర్శన్",
    "name_hi": "होटल कृष्णावेनी दर्शन",
    "name_ta": "ஹோட்டல் கிருஷ்ணவேணி தரிசனம்",
    "name_kn": "ಹೋಟಲ್‌ ಕೃಷ್ಣವೇಣಿ ದರ್ಶನ್",
    "name_ml": "ഹോട്ടൽ കൃഷ്ണവേണി ദർശൻ",
    "category": "FOOD",
    "latitude": 16.0736148,
    "longitude": 78.8744294
  },
  {
    "display name": "Hotel Sai Raghavendra",
    "name_te": "హోటల్‌ సై రాఘవేంద్ర",
    "name_hi": "होटल साई राघवेंद्र",
    "name_ta": "ஹோட்டல் சை ராகவெந்திர",
    "name_kn": "ಹೋಟಲ್‌ ಸೈ ರಾಘವೆಂದ್ರ",
    "name_ml": "ഹോട്ടൽ സൈ രാഘവെംദ്ര",
    "category": "FOOD",
    "latitude": 16.0722701,
    "longitude": 78.8727628
  },
  {
    "display name": "Eliya Hotel",
    "name_te": "ఎలియా హోటల్",
    "name_hi": "एलिया होटल",
    "name_ta": "எலியா ஹோட்டல்",
    "name_kn": "ಎಲಿಯಾ ಹೋಟಲ್‌",
    "name_ml": "എലിയ ഹോട്ടൽ",
    "category": "FOOD",
    "latitude": 16.0855864,
    "longitude": 78.8997262
  },
  {
    "display name": "Shrishail",
    "name_te": "శ్రీశైల్",
    "name_hi": "श्रीशैल",
    "name_ta": "ஸ்ரீசைல்",
    "name_kn": "ಶ್ರೀಶೈಲ್",
    "name_ml": "ശ്രീശൈൽ",
    "category": "FOOD",
    "latitude": 16.0739125,
    "longitude": 78.8686516
  },
  {
    "display name": "Srisalam",
    "name_te": "శ్రీశైలం",
    "name_hi": "श्रीशैलम",
    "name_ta": "ஸ்ரீசைலம்",
    "name_kn": "ಶ್ರೀಶೈಲಂ",
    "name_ml": "ശ്രീശൈലം",
    "category": "FOOD",
    "latitude": 16.0733451,
    "longitude": 78.8740116
  },
  {
    "display name": "Ganesh Food Court",
    "name_te": "గణేశ్ ఫుడ్ కోర్ట్",
    "name_hi": "गणेश फूड कोर्ट",
    "name_ta": "கணெஷ் ஃபூட் கோர்ட்",
    "name_kn": "ಗಣೆಶ್ ಫೂಡ್ ಕೋರ್ಟ್",
    "name_ml": "ഗണെഷ് ഫൂഡ് കോര്ട്",
    "category": "FOOD",
    "latitude": 16.0745511,
    "longitude": 78.8736382
  },
  {
    "display name": "Tri Shakti Canteen",
    "name_te": "త్రి శక్తి క్యాంటీన్",
    "name_hi": "त्रि शक्ति कैंटीन",
    "name_ta": "திரி சக்தி கேன்டீன்",
    "name_kn": "ಟ್ರೈ ಶಕ್ತಿ ಕ್ಯಾಂಟೀನ್",
    "name_ml": "ത്രി ശക്തി കാന്റീന്",
    "category": "FOOD",
    "latitude": 16.0771499,
    "longitude": 78.8761121
  },
  {
    "display name": "Amma Catering",
    "name_te": "అమ్మా కేటరింగ్",
    "name_hi": "अम्मा कैटरिंग",
    "name_ta": "அம்மா கேட்டரிங்",
    "name_kn": "ಅಮ್ಮಾ ಕೆಟರಿಂಗ್",
    "name_ml": "അമ്മാ കെറ്ററിംഗ്",
    "category": "FOOD",
    "latitude": 16.0719139,
    "longitude": 78.8703625
  },
  {
    "display name": "Tiffin Center Vegetarian",
    "name_te": "టిఫిన్ సెంటర్ వెజిటేరియన్",
    "name_hi": "टिफिन सेंटर शाकाहारी",
    "name_ta": "டிபன் சென்டர் சைவம்",
    "name_kn": "ಟಿಫಿನ್ ಸೆಂಟರ್ ಸಸ್ಯಾಹಾರಿ",
    "name_ml": "ടിഫിൻ സെന്റർ സസ്യാഹാരി",
    "category": "FOOD",
    "latitude": 16.071599,
    "longitude": 78.8709482
  },
  {
    "display name": "Maheshwari Tiffin Centre (Breakfast)",
    "name_te": "మహేశ్వరి టిఫిన్ సెంటర్ (బ్రేక్ఫాస్ట్)",
    "name_hi": "महेश्वरी टिफिन सेंटर (नाश्ता)",
    "name_ta": "மகேஸ்வரி டிஃபன் சென்டர் (காலை உணவு)",
    "name_kn": "ಮಹೆಶ್ವರಿ ಟಿಫಿನ್ ಸೆಂಟರ್ (ಬ್ರೇಕ್ಫಾಸ್ಟ್)",
    "name_ml": "മഹേശ്വരി ടിഫിൻ സെന്റർ (പ്രഭാതഭക്ഷണം)",
    "category": "FOOD",
    "latitude": 16.0739398,
    "longitude": 78.8713545
  },
  {
    "display name": "Alluramma Tiffin Hotel",
    "name_te": "అల్లూరమ్మ టిఫిన్ హోటల్",
    "name_hi": "अल्लुरम्मा टिफिन होटल",
    "name_ta": "அல்லுரம்மா டிஃபன் ஹோட்டல்",
    "name_kn": "ಅಲ್ಲೂರಮ್ಮ ಟಿಫಿನ್ ಹೋಟೆಲ್",
    "name_ml": "അല്ലുരമ്മ ടിഫിൻ ഹോട്ടൽ",
    "category": "FOOD",
    "latitude": 16.0776245,
    "longitude": 78.8766166
  },
  {
    "display name": "Lucky Tiffins",
    "name_te": "లక్కీ టిఫిన్స్",
    "name_hi": "लकी टिफिन्स",
    "name_ta": "லக்கி டிஃபின்கள்",
    "name_kn": "ಲಕಿ ಟಿಫಿನ್ಸ್",
    "name_ml": "ലക്കി ടിഫിൻസ്",
    "category": "FOOD",
    "latitude": 16.075924,
    "longitude": 78.8744297
  },
  {
    "display name": "Amurutha Tiffin Center",
    "name_te": "అమురుత టిఫిన్ సెంటర్",
    "name_hi": "अमरुथा टिफिन सेंटर",
    "name_ta": "அமுருதா டிபன் சென்டர்",
    "name_kn": "ಅಮುರುಠ ಟಿಫಿನ್ ಸೆಂಟರ್",
    "name_ml": "അമുരുത ടിഫിൻ സെന്റർ",
    "category": "FOOD",
    "latitude": 16.0726518,
    "longitude": 78.8714788
  },
  {
    "display name": "Sri Nandhini Food",
    "name_te": "శ్రి నందిని ఫుడ్",
    "name_hi": "श्री नंदिनी फूड",
    "name_ta": "ஷிரி நந்தினி ஃபுட்",
    "name_kn": "ಶ್ರಿ ನಂಧಿನಿ ಫೂಡ್",
    "name_ml": "ഷ്രി നന്ദിനി ഫൂഡ്",
    "category": "FOOD",
    "latitude": 16.0736799,
    "longitude": 78.872586
  },
  {
    "display name": "Naidu's Hotel",
    "name_te": "నాయుడు హోటల్",
    "name_hi": "नायडू होटल",
    "name_ta": "நாயுடுவின் ஹோட்டல்",
    "name_kn": "ನಾಯ್ಡು ಹೋಟೆಲ್",
    "name_ml": "നായിഡൂ ഹോട്ടൽ",
    "category": "FOOD",
    "latitude": 16.0733093,
    "longitude": 78.8724924
  },
  {
    "display name": "Nandini Tea Point",
    "name_te": "నందిని టీ పాయింట్",
    "name_hi": "नंदिनी टी पॉइंट",
    "name_ta": "நந்தினி தேநீர் முனையம்",
    "name_kn": "ನಂದಿನಿ ಟೀ ಪಾಯಿಂಟ್",
    "name_ml": "നന്ദിനി ടീ പോയിന്റ്",
    "category": "FOOD",
    "latitude": 16.0731067,
    "longitude": 78.8725055
  },
  {
    "display name": "No 1 Tea Stall",
    "name_te": "నెం. 1 టీ స్టాల్",
    "name_hi": "नं. 1 चाय दुकान",
    "name_ta": "எண். 1 டீ கடை",
    "name_kn": "ನಂ. 1 ಟೀ ಸ್ಟಾಲ್",
    "name_ml": "നമ്പർ 1 ടീ സ്റ്റാൾ",
    "category": "FOOD",
    "latitude": 16.0723341,
    "longitude": 78.8692926
  },
  {
    "display name": "Tea Break",
    "name_te": "టీ విరామం",
    "name_hi": "चाय ब्रेक",
    "name_ta": "தேநீர் இடைவேளை",
    "name_kn": "ಟೀ ವಿರಾಮ",
    "name_ml": "ചായ ഇടവേള",
    "category": "FOOD",
    "latitude": 16.0856682,
    "longitude": 78.8996942
  },
  {
    "display name": "Sri Giri Juice Shop",
    "name_te": "శ్రీ గిరి జ్యూస్ షాప్",
    "name_hi": "श्री गिरी जूस शॉप",
    "name_ta": "ஸ்ரீ கிரி ஜூஸ் கடை",
    "name_kn": "ಶ್ರಿ ಗಿರಿ ಜೂಸ್ ಶಾಪ್",
    "name_ml": "ഷ്രി ഗിരി ജ്യൂസ് ഷോപ്പ്",
    "category": "FOOD",
    "latitude": 16.0767153,
    "longitude": 78.875651
  },
  {
    "display name": "Ranjit Juice Center",
    "name_te": "రంజిత్ జ్యూస్ సెంటర్",
    "name_hi": "रणजीत जूस सेंटर",
    "name_ta": "ரஞ்சித் ஜூஸ் சென்டர்",
    "name_kn": "ರಂಜಿತ್ ಜ್ಯೂಸ್ ಸೆನ್ಟರ್‌",
    "name_ml": "രഞ്ജിത് ജ്യൂസ് സെംറ്റര്",
    "category": "FOOD",
    "latitude": 16.0686733,
    "longitude": 78.8685894
  },
  {
    "display name": "Chalo Chat Pani Puri",
    "name_te": "చలో చాట్ పానీ పూరి",
    "name_hi": "चलो चाट पानी पूरी",
    "name_ta": "சலோ சாட் பாணி பூரி",
    "name_kn": "ಚಲೋ ಚಾಟ್ ಪಾನಿ ಪುರಿ",
    "name_ml": "ചലോ ചാറ്റ് പാനി പുരി",
    "category": "FOOD",
    "latitude": 16.0762563,
    "longitude": 78.8750894
  },
  {
    "display name": "Annadanam & Laddu Prasadam",
    "name_te": "అన్నదానం & లడ్డూ ప్రసాదం",
    "name_hi": "अन्नदानम और लड्डू प्रसादम",
    "name_ta": "அன்னதானம் & லட்டு பிரசாதம்",
    "name_kn": "ಅನ್ನದಾನ ಮತ್ತು ಲಡ್ಡು ಪ್ರಸಾದ",
    "name_ml": "അന്നദാനവും ലഡ്ഡു പ്രസാദവും",
    "category": "FOOD",
    "latitude": 16.0723476,
    "longitude": 78.8665497
  },
  {
    "display name": "Srisailam Free Bhojanalaya",
    "name_te": "శ్రీశైలం ఉచిత భోజనాలయం",
    "name_hi": "श्रीशैलम निःशुल्क भोजनालय",
    "name_ta": "ஸ்ரீசைலம் இலவச உணவகம்",
    "name_kn": "ಶ್ರೀಶೈಲಂ ಉಚಿತ ಭೋಜನಾಲಯ",
    "name_ml": "ശ്രീശൈലം സൗജന്യ ഭക്ഷണശാല",
    "category": "FOOD",
    "latitude": 16.0725766,
    "longitude": 78.8668334
  },
  {
    "display name": "Annapura Bhavan",
    "name_te": "అన్నపూర్ణ భవన్",
    "name_hi": "अन्नपूर्ण भवन",
    "name_ta": "அன்னபூர்ண பவன்",
    "name_kn": "ಅನ್ನಪೂರ ಭವನ",
    "name_ml": "അന്നപൂർണ ഭവൻ",
    "category": "FOOD",
    "latitude": 16.07257,
    "longitude": 78.86683
  },
  {
    "display name": "Devastanam Hospital",
    "name_te": "దేవస్థానం హాస్పిటల్",
    "name_hi": "देवस्थानम अस्पताल",
    "name_ta": "தேவஸ்தானம் மருத்துவமனை",
    "name_kn": "ದೇವಸ್ತಾನಂ ಆಸ್ಪತ್ರೆ",
    "name_ml": "ദേവസ്ഥാനം ആശുപത്രി",
    "category": "FACILITY",
    "latitude": 16.071759,
    "longitude": 78.8699068
  },
  {
    "display name": "Primary Health Center",
    "name_te": "ప్రాథమిక ఆరోగ్య కేంద్రం",
    "name_hi": "प्राथमिक स्वास्थ्य केन्द्र",
    "name_ta": "ஆரம்ப சுகாதார மையம்",
    "name_kn": "ಪ್ರಾಥಮಿಕ ಆರೋಗ್ಯ ಕೇಂದ್ರ",
    "name_ml": "പ്രാഥമിക ആരോഗ്യ കേന്ദ്രം",
    "category": "FACILITY",
    "latitude": 16.0749508,
    "longitude": 78.873215
  },
  {
    "display name": "SST Home & Health Sri Sailam",
    "name_te": "SST హోమ్ & హెల్త్ శ్రీశైలం",
    "name_hi": "एसएसटी होम एंड हेल्थ श्रीशैलम",
    "name_ta": "எஸ்எஸ்டி ஹோம் & ஹெல்த் ஸ்ரீ சைலம்",
    "name_kn": "ಎಸ್‌ಎಸ್‌ಟಿ ಹೋಮ್ & ಹೆಲ್ತ್ ಶ್ರೀ ಸೈಲಂ",
    "name_ml": "എസ്എസ്ടി ഹോം & ഹെൽത്ത് ശ്രീ സൈലം",
    "category": "FACILITY",
    "latitude": 16.0738907,
    "longitude": 78.8681117
  },
  {
    "display name": "Mallanna Medical & Fancy Store",
    "name_te": "మల్లన్న మెడికల్ & ఫ్యాన్సీ దుకాణం",
    "name_hi": "मलन्ना मेडिकल एवं फैंसी स्टोर",
    "name_ta": "மல்லன்னா மெடிக்கல் & ஃபேன்ஸி ஸ்டோர்",
    "name_kn": "ಮಲ್ಲನ್ನಾ ಮೆಡಿಕಲ್ & ಫ್ಯಾನ್ಸಿ ಸ್ಟೋರ್",
    "name_ml": "മല്ലന്നാ മെഡികൽ & ഫാന്സി സ്ടോര്",
    "category": "FACILITY",
    "latitude": 16.07379,
    "longitude": 78.8690284
  },
  {
    "display name": "Srisalam 1Town Police Station",
    "name_te": "శ్రీశైలం వన్ టౌన్ పోలీస్ స్టేషన్",
    "name_hi": "श्रीशैलम वन टाउन पुलिस स्टेशन",
    "name_ta": "ஸ்ரீசலம் 1டவுன் போலிஸ் ஸ்டெஷன்",
    "name_kn": "ಶ್ರೀಸಲಾಮ್ 1 ಟೌನ್ ಪೋಲಿಸ್ ಸ್ಟೆಷನ್",
    "name_ml": "ശ്രീസലാം 1ടൌന് പോലിസ് സ്ടെഷൻ",
    "category": "FACILITY",
    "latitude": 16.0699141,
    "longitude": 78.8693158
  },
  {
    "display name": "Fire Station, Srisailam",
    "name_te": "అగ్నిమాపక కేంద్రం, శ్రీశైలం",
    "name_hi": "फायर स्टेशन, श्रीशैलम",
    "name_ta": "தீயணைப்பு நிலையம், ஸ்ரீசைலம்",
    "name_kn": "ಅಗ್ನಿಶಾಮಕ ಠಾಣೆ, ಶ್ರೀಶೈಲಂ",
    "name_ml": "ഫയർ സ്റ്റേഷൻ, ശ്രീശൈലം",
    "category": "FACILITY",
    "latitude": 16.0779746,
    "longitude": 78.8623732
  },
  {
    "display name": "Sub Post Office",
    "name_te": "ఉప తపాలా కార్యాలయం",
    "name_hi": "उप डाकघर",
    "name_ta": "துணை தபால் அலுவலகம்",
    "name_kn": "ಉಪ ಅಂಚೆ ಕಚೇರಿ",
    "name_ml": "സബ് പോസ്റ്റ് ഓഫീസ്",
    "category": "FACILITY",
    "latitude": 16.0704238,
    "longitude": 78.8693156
  },
  {
    "display name": "Wisdom School",
    "name_te": "విజ్డమ్ స్కూల్",
    "name_hi": "ज्ञान विद्यालय",
    "name_ta": "ஞானப் பள்ளி",
    "name_kn": "ವಿಸ್ಡಮ್ ಸ್ಕೂಲ್",
    "name_ml": "വിസ്ഡം സ്കൂൾ",
    "category": "FACILITY",
    "latitude": 16.0733321,
    "longitude": 78.8617424
  },
  {
    "display name": "Chaitanya School",
    "name_te": "చైతన్య స్కూల్",
    "name_hi": "चैतन्य स्कूल",
    "name_ta": "சைதன்யா பள்ளி",
    "name_kn": "ಚೈತನ್ಯ ಶಾಲೆ",
    "name_ml": "ചൈതന്യ സ്കൂൾ",
    "category": "FACILITY",
    "latitude": 16.0730602,
    "longitude": 78.8630738
  },
  {
    "display name": "High School",
    "name_te": "ఉన్నత పాఠశాల",
    "name_hi": "उच्च विद्यालय",
    "name_ta": "உயர்நிலைப் பள்ளி",
    "name_kn": "ಪ್ರೌಢಶಾಲೆ",
    "name_ml": "ഹൈസ്കൂൾ",
    "category": "FACILITY",
    "latitude": 16.0736824,
    "longitude": 78.8645977
  },
  {
    "display name": "ZPHS Srisailam",
    "name_te": "ZPHS శ్రీశైలం",
    "name_hi": "जेडपीएचएस श्रीशैलम",
    "name_ta": "ZPHS ஸ்ரீசைலம்",
    "name_kn": "ZPHS ಶ್ರೀಶೈಲಂ",
    "name_ml": "ZPHS ശ്രീശൈലം",
    "category": "FACILITY",
    "latitude": 16.0736489,
    "longitude": 78.8642877
  },
  {
    "display name": "Veerashaiva Gurukulam",
    "name_te": "వీరశైవ గురుకులం",
    "name_hi": "वीरशैव गुरुकुलम",
    "name_ta": "வீரசைவ குருகுலம்",
    "name_kn": "ವೀರಶೈವ ಗುರುಕುಲಂ",
    "name_ml": "വീരശൈവ ഗുരുകുലം",
    "category": "FACILITY",
    "latitude": 16.0785052,
    "longitude": 78.8681473
  },
  {
    "display name": "Sri Devi Vedavidhyalayam – Srividhya Sevasamithi – Srisailam",
    "name_te": "శ్రీ దేవి వేదవిద్యాలయం – శ్రీవిద్యా సేవాసమితి – శ్రీశైలం",
    "name_hi": "श्री देवी वेदविद्यालयम - श्रीविद्या सेवासमिति - श्रीशैलम",
    "name_ta": "ஸ்ரீ தேவி வேதவித்யாலயம் – ஸ்ரீவித்யா சேவாசமிதி – ஸ்ரீசைலம்",
    "name_kn": "ಶ್ರೀ ದೇವಿ ವೇದವಿದ್ಯಾಲಯ - ಶ್ರೀವಿದ್ಯಾ ಸೇವಾಸಮಿತಿ - ಶ್ರೀಶೈಲಂ",
    "name_ml": "ശ്രീ ദേവി വേദവിദ്യാലയം - ശ്രീവിദ്യാ സേവാസമിതി - ശ്രീശൈലം",
    "category": "FACILITY",
    "latitude": 16.077539,
    "longitude": 78.8685661
  },
  {
    "display name": "Sri Shankara Veda Smartha Patashala",
    "name_te": "శ్రీ శంకర వేద స్మార్త పాటశాల",
    "name_hi": "श्री शंकर वेद समर्थ पाठशाला",
    "name_ta": "ஸ்ரீ சங்கர வேத ஸ்மார்த்த பாடஷாலா",
    "name_kn": "ಶ್ರೀ ಶಂಕರ ವೇದ ಸ್ಮಾರ್ತ ಪಾಠಶಾಲಾ",
    "name_ml": "ശ്രീ ശങ്കര വേദ സ്മാർത്ത പാടശാല",
    "category": "FACILITY",
    "latitude": 16.0740248,
    "longitude": 78.8693023
  },
  {
    "display name": "Library",
    "name_te": "గ్రంథాలయం",
    "name_hi": "पुस्तकालय",
    "name_ta": "நூலகம்",
    "name_kn": "ಗ್ರಂಥಾಲಯ",
    "name_ml": "ലൈബ്രറി",
    "category": "FACILITY",
    "latitude": 16.0726279,
    "longitude": 78.8723774
  },
  {
    "display name": "Parking",
    "name_te": "వాహనాల పార్కింగ్",
    "name_hi": "वाहन पार्किंग",
    "name_ta": "பார்க்கிங்",
    "name_kn": "ಪಾರ್ಕಿಂಗ್",
    "name_ml": "പാർക്കിംഗ്",
    "category": "FACILITY",
    "latitude": 16.0689771,
    "longitude": 78.8677872
  },
  {
    "display name": "Parking",
    "name_te": "వాహనాల పార్కింగ్",
    "name_hi": "वाहन पार्किंग, श्रीशैलम",
    "name_ta": "பார்க்கிங்",
    "name_kn": "ಪಾರ್ಕಿಂಗ್",
    "name_ml": "പാർക്കിംഗ്",
    "category": "FACILITY",
    "latitude": 16.0719323,
    "longitude": 78.8684256
  },
  {
    "display name": "Vehicle Parking",
    "name_te": "వాహనాల పార్కింగ్",
    "name_hi": "वाहन पार्किंग",
    "name_ta": "வாகன நிறுத்துமிடம்",
    "name_kn": "ವಾಹನ ಪಾರ್ಕಿಂಗ್",
    "name_ml": "വാഹന പാർക്കിംഗ്",
    "category": "FACILITY",
    "latitude": 16.0729401,
    "longitude": 78.8720073
  },
  {
    "display name": "Car Parking, Srisailam",
    "name_te": "వాహనాల పార్కింగ్",
    "name_hi": "कार पार्किंग, श्रीशैलम",
    "name_ta": "கார் நிறுத்துமிடம், ஸ்ரீசைலம்",
    "name_kn": "ಕಾರು ಪಾರ್ಕಿಂಗ್, ಶ್ರೀಶೈಲಂ",
    "name_ml": "കാർ പാർക്കിംഗ് സ്ഥലം, Srisailam",
    "category": "FACILITY",
    "latitude": 16.0715745,
    "longitude": 78.8721057
  },
  {
    "display name": "Ankalamma Parking",
    "name_te": "అంకాలమ్మ పార్కింగ్",
    "name_hi": "अंकलम्मा पार्किंग",
    "name_ta": "அங்கலம்மா பார்க்கிங்",
    "name_kn": "ಅಂಕಲಮ್ಮ ಪಾರ್ಕಿಂಗ್",
    "name_ml": "അങ്കലമ്മ പാർക്കിംഗ്",
    "category": "FACILITY",
    "latitude": 16.0733022,
    "longitude": 78.8721894
  },
  {
    "display name": "Annapurna Satram Car Parking",
    "name_te": "అన్నపూర్ణ సత్రం కార్ పార్కింగ్",
    "name_hi": "अन्नपूर्णा सतरम कार पार्किंग",
    "name_ta": "அன்னபூர்ணா சத்ரம் கார் பார்க்கிங்",
    "name_kn": "ಅನ್ನಪೂರ್ಣ ಸತ್ರಮ್ ಕಾರ್ ಪಾರ್ಕಿಂಗ್",
    "name_ml": "അന്നപൂർണ്ണ സത്രം കാർ പാർക്കിംഗ്",
    "category": "FACILITY",
    "latitude": 16.0731534,
    "longitude": 78.8719517
  },
  {
    "display name": "Tourist Bus Parking",
    "name_te": "పర్యాటక బస్సు పార్కింగ్",
    "name_hi": "पर्यटक बस पार्किंग",
    "name_ta": "சுற்றுலா பேருந்து நிறுத்துமிடம்",
    "name_kn": "ಪ್ರವಾಸಿ ಬಸ್ ನಿಲ್ದಾಣ",
    "name_ml": "ടൂറിസ്റ്റ് ബസ് പാർക്കിംഗ്",
    "category": "FACILITY",
    "latitude": 16.0689087,
    "longitude": 78.8692775
  },
  {
    "display name": "Ticket Counters",
    "name_te": "టికెట్ కౌంటర్లు",
    "name_hi": "टिकट काउंटर",
    "name_ta": "டிக்கெட் கவுண்டர்கள்",
    "name_kn": "ಟಿಕೆಟ್ ಕೌಂಟರ್‌ಗಳು",
    "name_ml": "ടിക്കറ്റ് കൗണ്ടറുകൾ",
    "category": "FACILITY",
    "latitude": 16.0736827,
    "longitude": 78.869592
  },
  {
    "display name": "Prasadam Counters, Srisailam",
    "name_te": "ప్రసాదం కౌంటర్లు, శ్రీశైలం",
    "name_hi": "प्रसाद काउंटर, श्रीशैलम",
    "name_ta": "பிரசாத கவுண்டர்கள், ஸ்ரீசைலம்",
    "name_kn": "ಪ್ರಸಾದ ಕೌಂಟರ್‌ಗಳು, ಶ್ರೀಶೈಲಂ",
    "name_ml": "പ്രസാദം കൗണ്ടറുകൾ, ശ്രീശൈലം",
    "category": "FACILITY",
    "latitude": 16.0727871,
    "longitude": 78.8667628
  },
  {
    "display name": "Saakshi Ganapathi Online Ticket Booking Counter",
    "name_te": "సాక్షి గణపతి ఆన్‌లైన్ టికెట్ బుకింగ్ కేంద్రం",
    "name_hi": "साक्षी गणपति ऑनलाइन टिकट बुकिंग केन्द्र",
    "name_ta": "சாக்ஷி கணபதி ஆன்லைன் டிக்கெட் முன்பதிவு கவுண்டர்",
    "name_kn": "ಸಾಕ್ಷಿ ಗಣಪತಿ ಆನ್‌ಲೈನ್ ಟಿಕೆಟ್ ಬುಕಿಂಗ್ ಕೌಂಟರ್",
    "name_ml": "സാക്ഷി ഗണപതി ഓൺലൈൻ ടിക്കറ്റ് ബുക്കിംഗ് കൗണ്ടർ",
    "category": "FACILITY",
    "latitude": 16.0768296,
    "longitude": 78.8755226
  },
  {
    "display name": "Kalyana Katta",
    "name_te": "కళ్యాణ కట్ట",
    "name_hi": "कल्याणा कट्टा",
    "name_ta": "கல்யாண கட்டா",
    "name_kn": "ಕಲ್ಯಾಣ ಕಟ್ಟಾ",
    "name_ml": "കല്യാണ കട്ട",
    "category": "FACILITY",
    "latitude": 16.0768087,
    "longitude": 78.8759629
  },
  {
    "display name": "Srisailam Devasthanam Camera and Phone Keeping Room",
    "name_te": "శ్రీశైలం దేవస్థానం కెమెరా & ఫోన్ నిల్వ కేంద్రం",
    "name_hi": "श्रीशैलम देवस्थान कैमरा एवं फोन जमा कक्ष",
    "name_ta": "ஸ்ரீசைலம் தேவஸ்தான கேமரா மற்றும் தொலைபேசி வைக்கும் அறை",
    "name_kn": "ಶ್ರೀಶೈಲಂ ದೇವಸ್ಥಾನಂ ಕ್ಯಾಮೆರಾ ಮತ್ತು ಫೋನ್ ಕೀಪಿಂಗ್ ಕೊಠಡಿ",
    "name_ml": "ശ്രീശൈലം ദേവസ്ഥാനം ക്യാമറയും ഫോൺ സൂക്ഷിക്കാനുള്ള മുറിയും",
    "category": "FACILITY",
    "latitude": 16.07351,
    "longitude": 78.8694904
  },
  {
    "display name": "Srisailam Devasthanam Cloak Room Luggage Counter",
    "name_te": "శ్రీశైలం దేవస్థానం క్లోక్ రూమ్ సామాను కౌంటర్",
    "name_hi": "श्रीशैलम देवस्थान क्लोक रूम सामान काउंटर",
    "name_ta": "ஸ்ரீசைலம் தேவஸ்தான க்ளோக் ரூம் லக்கேஜ் கவுண்டர்",
    "name_kn": "ಶ್ರೀಶೈಲಂ ದೇವಸ್ತಾನಂ ಕ್ಲೋಕ್ ರೂಮ್ ಲಗೇಜ್ ಕೌಂಟರ್",
    "name_ml": "ശ്രീശൈലം ദേവസ്ഥാനം ക്ലോക്ക് റൂം ലഗേജ് കൗണ്ടർ",
    "category": "FACILITY",
    "latitude": 16.0724604,
    "longitude": 78.8700253
  },
  {
    "display name": "Goshala",
    "name_te": "గోశాల",
    "name_hi": "गौशाला",
    "name_ta": "கோஷாலா",
    "name_kn": "ಗೋಶಾಲ",
    "name_ml": "ഗോശാല",
    "category": "FACILITY",
    "latitude": 16.0747587,
    "longitude": 78.8686204
  },
  {
    "display name": "Srisaila Devasthanam Gosamrakshana",
    "name_te": "శ్రీశైల దేవస్థానం గోసంరక్షణ",
    "name_hi": "श्रीशैल देवस्थानं गोसंरक्षण",
    "name_ta": "ஸ்ரீசைல தேவஸ்தானம் கோசம்ரக்ஷணம்",
    "name_kn": "ಶ್ರೀಶೈಲ ದೇವಸ್ಥಾನಂ ಗೋಸಂರಕ್ಷಣಾ",
    "name_ml": "ശ്രീശൈല ദേവസ്ഥാനം ഗോസംരക്ഷണം",
    "category": "FACILITY",
    "latitude": 16.0793928,
    "longitude": 78.8613041
  },
  {
    "display name": "Snana Ghattalu, Pathalaganga, Srisailam",
    "name_te": "స్నాన ఘట్టాలు, పాతాళగంగ, శ్రీశైలం",
    "name_hi": "स्नान घाट, पातालगंगा, श्रीशैलम",
    "name_ta": "ஸ்னானா கட்டலு, பாதலகங்கா, ஸ்ரீசைலம்",
    "name_kn": "ಸ್ನಾನ ಘಟ್ಟಲು, ಪಾತಾಳಗಂಗಾ, ಶ್ರೀಶೈಲ",
    "name_ml": "സ്നാന ഘട്ടലു, പാതാളഗംഗ, ശ്രീശൈലം",
    "category": "FACILITY",
    "latitude": 16.0801738,
    "longitude": 78.8815323
  },
  {
    "display name": "APSRTC Bus Stand",
    "name_te": "APSRTC బస్ స్టాండ్",
    "name_hi": "एपीएसआरटीसी बस स्टैंड",
    "name_ta": "APSRTC பேருந்து நிலையம்",
    "name_kn": "ಎಪಿಎಸ್ಆರ್ಟಿಸಿ ಬಸ್ ನಿಲ್ದಾಣ",
    "name_ml": "എ.പി.എസ്.ആർ.ടി.സി ബസ് സ്റ്റാൻഡ്",
    "category": "TRANSPORT",
    "latitude": 16.0739227,
    "longitude": 78.875241
  },
  {
    "display name": "APSRTC and TSRTC Advance Booking Counter",
    "name_te": "APSRTC మరియు TSRTC ముందస్తు బుకింగ్ కౌంటర్",
    "name_hi": "एपीएसआरटीसी और टीएसआरटीसी अग्रिम बुकिंग काउंटर",
    "name_ta": "APSRTC மற்றும் TSRTC முன்பதிவு டிக்கெட் கவுண்டர்",
    "name_kn": "APSRTC ಮತ್ತು TSRTC ಮುಂಗಡ ಟಿಕೆಟ್ ಬುಕ್ಕಿಂಗ್ ಕೌಂಟರ್",
    "name_ml": "APSRTC, TSRTC മുൻകൂർ ടിക്കറ്റ് ബുക്കിംഗ് കൗണ്ടർ",
    "category": "TRANSPORT",
    "latitude": 16.073828,
    "longitude": 78.8749811
  },
  {
    "display name": "Naidu Travels Srisailam Cabs & Taxi",
    "name_te": "నాయుడు ట్రావెల్స్ శ్రీశైలం క్యాబ్ & ట్యాక్సీ సేవలు",
    "name_hi": "नायडू ट्रेवल्स श्रीशैलम कैब्स और टैक्सी",
    "name_ta": "நாயுடு டிராவல்ஸ் ஸ்ரீசைலம் கேப் & டாக்ஸி சேவை",
    "name_kn": "ನಾಯ್ಡು ಟ್ರಾವೆಲ್ಸ್ ಶ್ರೀಶೈಲಂ ಕ್ಯಾಬ್ & ಟ್ಯಾಕ್ಸಿ ಸೇವೆಗಳು",
    "name_ml": "കെ.എൻ.ആർ. ട്രാവൽസ് കാബ് സേവനങ്ങൾ",
    "category": "TRANSPORT",
    "latitude": 16.0732662,
    "longitude": 78.8747812
  },
  {
    "display name": "KNR Travels and Cab Service",
    "name_te": "KNR ట్రావెల్స్ మరియు క్యాబ్ సేవలు",
    "name_hi": "केएनआर ट्रैवल्स और कैब सेवा",
    "name_ta": "கே.என்.ஆர். டிராவல்ஸ் மற்றும் கேப் சேவை",
    "name_kn": "ಕೆ.ಎನ್.ಆರ್. ಟ್ರಾವೆಲ್ಸ್ ಮತ್ತು ಕ್ಯಾಬ್ ಸೇವೆಗಳು",
    "name_ml": "കെ.എൻ.ആർ. ട്രാവൽസ് കാബ് സേവനങ്ങൾ",
    "category": "TRANSPORT",
    "latitude": 16.0735158,
    "longitude": 78.8734198
  },
  {
    "display name": "Srisailam Four Wheel Travels",
    "name_te": "శ్రీశైలం ఫోర్ వీలర్ ట్రావెల్స్",
    "name_hi": "श्रीशैलम फोर व्हील ट्रेवल्स",
    "name_ta": "ஸ்ரீசைலம் ஃபோர் வீலர் டிராவல்ஸ்",
    "name_kn": "ಶ್ರೀಶೈಲಂ ಫೋರ್ ವೀಲರ್ ಟ್ರಾವೆಲ್ಸ್",
    "name_ml": "ശ്രീശൈലം ഫോർ വീലർ ട്രാവൽസ്",
    "category": "TRANSPORT",
    "latitude": 16.0735378,
    "longitude": 78.8728579
  },
  {
    "display name": "Water Treatment Plant - Srisailam",
    "name_te": "నీటి శుద్ధి కేంద్రం - శ్రీశైలం",
    "name_hi": "जल उपचार संयंत्र - श्रीशैलम",
    "name_ta": "நீர் சுத்திகரிப்பு நிலையம் - ஸ்ரீசைலம்",
    "name_kn": "ಜಲ ಸಂಸ್ಕರಣಾ ಘಟಕ - ಶ್ರೀಶೈಲಂ",
    "name_ml": "ജലശുദ്ധീകരണ പ്ലാൻ്റ് - ശ്രീശൈലം",
    "category": "UTILITY",
    "latitude": 16.0676081,
    "longitude": 78.866079
  },
  {
    "display name": "33/11 KV Electrical Substation",
    "name_te": "33/11 కేవీ విద్యుత్ ఉప కేంద్రం",
    "name_hi": "33/11 केवी विद्युत उपकेंद्र",
    "name_ta": "33/11 கி.வி. மின்சார துணை நிலையம்",
    "name_kn": "33/11 ಕೆ.ವಿ. ವಿದ್ಯುತ್ ಉಪಕೇಂದ್ರ",
    "name_ml": "33/11 കെ.വി. വൈദ്യുതി ഉപകേന്ദ്രം",
    "category": "UTILITY",
    "latitude": 16.0734981,
    "longitude": 78.8757396
  },
  {
    "display name": "IndianOil",
    "name_te": "ఇండియన్ ఆయిల్",
    "name_hi": "इंडियनऑयल",
    "name_ta": "இந்தியன்ஆயில்",
    "name_kn": "ಇಂಡಿಯನ್‌ಆಯಿಲ್",
    "name_ml": "ഇന്ത്യൻഓയിൽ",
    "category": "UTILITY",
    "latitude": 16.072001,
    "longitude": 78.8715
  },
  {
    "display name": "Shri Giri Fillings Bharat Petroleum",
    "name_te": "శ్రీ గిరి ఫిల్లింగ్స్ భారత్ పెట్రోలియం",
    "name_hi": "श्री गिरी फ्यूलिंग स्टेशन (भारत पेट्रोलियम)",
    "name_ta": "ஸ்ரீ கிரி எரிபொருள் நிலையம் (பாரத் பெட்ரோலியம்)",
    "name_kn": "ಶ್ರೀ ಗಿರಿ ಇಂಧನ ಕೇಂದ್ರ (ಭಾರತ ಪೆಟ್ರೋಲಿಯಂ)",
    "name_ml": "ശ്രീ ഗിരി ഇന്ധന കേന്ദ്രം (ഭാരത് പെട്രോളിയം)",
    "category": "UTILITY",
    "latitude": 16.0677821,
    "longitude": 78.8690348
  },
  {
    "display name": "HDFC Bank",
    "name_te": "HDFC బ్యాంక్",
    "name_hi": "एचडीएफसी बैंक",
    "name_ta": "HDFC வங்கி",
    "name_kn": "ಹೆಚ್.ಡಿ.ಎಫ್.ಸಿ. ಬ್ಯಾಂಕ್",
    "name_ml": "എച്ച്ഡിഎഫ്സി ബാങ്ക്",
    "category": "UTILITY",
    "latitude": 16.0745512,
    "longitude": 78.8613957
  },
  {
    "display name": "Union Bank of India",
    "name_te": "యూనియన్ బ్యాంక్ ఆఫ్ ఇండియా",
    "name_hi": "यूनियन बैंक ऑफ इंडिया",
    "name_ta": "யூனியன் வங்கி ஆஃப் இந்தியா",
    "name_kn": "ಯುನಿಯನ್ ಬ್ಯಾಂಕ್ ಆಫ್ ಇಂಡಿಯಾ",
    "name_ml": "യൂണിയൻ ബാങ്ക് ഓഫ് ഇന്ത്യ",
    "category": "UTILITY",
    "latitude": 16.073745,
    "longitude": 78.873696
  },
  {
    "display name": "State Bank ATM",
    "name_te": "స్టేట్ బ్యాంక్ ఎటిఎం",
    "name_hi": "भारतीय स्टेट बैंक एटीएम",
    "name_ta": "ஸ்டேட் பாங்க் ஆஃப் இந்தியா ஏ.டி.எம்.",
    "name_kn": "ಸ್ಟೇಟ್ ಬ್ಯಾಂಕ್ ಆಫ್ ಇಂಡಿಯಾ ಎಟಿಎಂ",
    "name_ml": "സ്റ്റേറ്റ് ബാങ്ക് ഓഫ് ഇന്ത്യ എ.ടി.എം.",
    "category": "UTILITY",
    "latitude": 16.0737049,
    "longitude": 78.8738152
  },
  {
    "display name": "Andhra Bank ATM",
    "name_te": "ఆంధ్రా బ్యాంక్ ఎటిఎం",
    "name_hi": "आंध्रा बैंक एटीएम",
    "name_ta": "ஆந்திரா வங்கி ஏ.டி.எம்.",
    "name_kn": "ಆಂಧ್ರ ಬ್ಯಾಂಕ್ ಎಟಿಎಂ",
    "name_ml": "ആന്ധ്ര ബാങ്ക് എ.ടി.എം.",
    "category": "UTILITY",
    "latitude": 16.0737081,
    "longitude": 78.8739976
  },
  {
    "display name": "Free Mineral Water Srisailam",
    "name_te": "ఉచిత ఖనిజ జలం, శ్రీశైలం",
    "name_hi": "श्रीशैलम निःशुल्क खनिज जल",
    "name_ta": "ஸ்ரீசைலம் இலவச கனிம நீர்",
    "name_kn": "ಶ್ರೀಶೈಲಂ ಉಚಿತ ಖನಿಜ ನೀರು",
    "name_ml": "ശ്രീശൈലം സൗജന്യ ഖനിജ ജലം",
    "category": "UTILITY",
    "latitude": 16.0722745,
    "longitude": 78.8685228
  },
  {
    "display name": "Public Toilets & Bathrooms",
    "name_te": "ప్రజా మరుగుదొడ్లు & స్నాన గదులు",
    "name_hi": "सार्वजनिक शौचालय एवं स्नानघर",
    "name_ta": "பொது கழிப்பறைகள் & குளியலறைகள்",
    "name_kn": "ಸಾರ್ವಜನಿಕ ಶೌಚಾಲಯಗಳು & ಸ್ನಾನಗೃಹಗಳು",
    "name_ml": "പൊതു ശൗചാലയങ്ങൾ & കുളിമുറികൾ",
    "category": "UTILITY",
    "latitude": 16.0760884,
    "longitude": 78.8697203
  },
  {
    "display name": "Ladies Toilet / Washroom (Pay & Use)",
    "name_te": "మహిళల మరుగుదొడ్డి / వాష్‌రూమ్ (చెల్లింపు ఆధారితం)",
    "name_hi": "महिला शौचालय / स्नानघर (भुगतान आधारित)",
    "name_ta": "பெண்கள் கழிப்பறை / குளியலறை (கட்டணம் செலுத்தி பயன்படும்)",
    "name_kn": "ಮಹಿಳೆಯರ ಶೌಚಾಲಯ / ವಾಶ್‌ರೂಮ್ (ಪಾವತಿ ಆಧಾರಿತ)",
    "name_ml": "സ്ത്രീകളുടെ ശൗചാലയം / വാഷ്‌റൂം (പണമടച്ച് ഉപയോഗിക്കുക)",
    "category": "UTILITY",
    "latitude": 16.0778898,
    "longitude": 78.8769499
  },
  {
    "display name": "Infinity Cool Drinks",
    "name_te": "ఇన్ఫినిటీ శీతల పానీయాలు",
    "name_hi": "इन्फिनिटी शीतल पेय",
    "name_ta": "இன்ஃபினிட்டி குளிர்பானங்கள்",
    "name_kn": "ಇನ್ಫಿನಿಟಿ ಶೀತಪಾನೀಯಗಳು",
    "name_ml": "ഇൻഫിനിറ്റി ശീതളപാനീയങ്ങൾ",
    "category": "UTILITY",
    "latitude": 16.0751076,
    "longitude": 78.8738571
  },
  {
    "display name": "7 Hills Cool Drinks & General Stores (Srinivas Reddy Vundavelli)",
    "name_te": "శీతల పానీయాలు & కిరాణా దుకాణాలు",
    "name_hi": "शीतल पेय एवं किराना स्टोर्स",
    "name_ta": "குளிர்பானங்கள் & மளிகைக் கடைகள்",
    "name_kn": "ಶೀತಪಾನೀಯಗಳು & ಕಿರಾಣಿ ಅಂಗಡಿಗಳು",
    "name_ml": "ശീതളപാനീയങ്ങൾ & പലചരക്ക് കടകൾ",
    "category": "UTILITY",
    "latitude": 16.074067,
    "longitude": 78.8712379
  },
  {
    "display name": "Kanaka Durga Digital Studio and Xerox",
    "name_te": "కనకా దుర్గా డిజిటల్ స్టూడియో & జిరాక్స్‌",
    "name_hi": "कनका दुर्गा डिजिटल स्टूडियो और ज़ेरॉक्स",
    "name_ta": "கனக துர்கா டிஜிட்டல் ஸ்டுடியோ மற்றும் ஜெராக்ஸ்",
    "name_kn": "ಕನಕಾ ದುರ್ಗಾ ಡಿಜಿಟಲ್ ಸ್ಟುಡಿಯೋ ಎಂಡ್ ಜೆರಾಕ್ಸ್‌",
    "name_ml": "കനക ദുർഗ ഡിജിറ്റൽ സ്റ്റുഡിയോ ആൻഡ് സെറോക്സ്",
    "category": "UTILITY",
    "latitude": 16.0755552,
    "longitude": 78.8744407
  },
  {
    "display name": "Royal Xerox Center",
    "name_te": "రాయల్ జిరాక్స్ సెంటర్",
    "name_hi": "रॉयल ज़िरॉक्स सेंटर",
    "name_ta": "ராயல் ஜிராக்ஸ் சென்டர்",
    "name_kn": "ರಾಯಲ್ ಜಿರಾಕ್ಸ್ ಸೆಂಟರ್",
    "name_ml": "റോയൽ സിറോക്സ് സെന്റർ",
    "category": "UTILITY",
    "latitude": 16.0718904,
    "longitude": 78.874367
  },
  {
    "display name": "Sneha Xerox Shop",
    "name_te": "స్నేహ జిరాక్స్ షాప్",
    "name_hi": "स्नेहा ज़िरॉक्स शॉप",
    "name_ta": "ஸ்நேஹா ஜிராக்ஸ் கடை",
    "name_kn": "ಸ್ನೇಹ ಜಿರಾಕ್ಸ್ ಅಂಗಡಿ",
    "name_ml": "സ്നേഹ സിറോക്സ് കട",
    "category": "UTILITY",
    "latitude": 16.0739585,
    "longitude": 78.8736019
  },
  {
    "display name": "Puncher Shop and New Tyres",
    "name_te": "పంచర్ షాప్ & కొత్త టైర్లు",
    "name_hi": "पंचर शॉप एवं नए टायर",
    "name_ta": "பஞ்சர் கடை & புதிய டயர்கள்",
    "name_kn": "ಪಂಚರ್ ಅಂಗಡಿ & ಹೊಸ ಟೈರ್‌ಗಳು",
    "name_ml": "പഞ്ചർ കട & പുതിയ ടയറുകൾ",
    "category": "UTILITY",
    "latitude": 16.0757275,
    "longitude": 78.8741212
  },
  {
    "display name": "Tyre Repair & Puncture Shop",
    "name_te": "టైర్ మరమ్మత్తు & పంచర్ షాప్",
    "name_hi": "टायर मरम्मत एवं पंचर शॉप",
    "name_ta": "டயர் பழுது பார்க்கும் & பஞ்சர் கடை",
    "name_kn": "ಟೈರ್ ದುರಸ್ತಿ & ಪಂಚರ್ ಅಂಗಡಿ",
    "name_ml": "ടയർ അറ്റകുറ്റപ്പണി & പഞ്ചർ കട",
    "category": "UTILITY",
    "latitude": 16.0724294,
    "longitude": 78.8740309
  },
  {
    "display name": "SBMS Automobile Garage",
    "name_te": "SBMS ఆటోమొబైల్ గ్యారేజ్",
    "name_hi": "एसबीएमएस ऑटोमोबाइल गैराज",
    "name_ta": "SBMS ஆட்டோமொபைல் கேரேஜ்",
    "name_kn": "ಎಸ್‌ಬಿಎಂಎಸ್ ಆಟೋಮೊಬೈಲ್ ಗ್ಯಾರೇಜ್",
    "name_ml": "എസ്ബിഎംഎസ് ഓട്ടോമൊബൈൽ ഗാരേജ്",
    "category": "UTILITY",
    "latitude": 16.067967,
    "longitude": 78.8691545
  },
  {
    "display name": "Niru's Designer Boutique",
    "name_te": "నిరు డిజైనర్ బుటిక్",
    "name_hi": "नीरू डिज़ाइनर बुटीक",
    "name_ta": "நிரு டிசைனர் பூட்டிக்",
    "name_kn": "ನಿರು ಡಿಸೈನರ್ ಬೋಟಿಕ್",
    "name_ml": "നിരു ഡിസൈനർ ബൂട്ടിക്",
    "category": "UTILITY",
    "latitude": 16.0734025,
    "longitude": 78.862852
  },
  {
    "display name": "Lakshmi Professional Makeup Artist, Srisailam",
    "name_te": "లక్ష్మీ ప్రొఫెషనల్ మేకప్ ఆర్టిస్ట్, శ్రీశైలం",
    "name_hi": "लक्ष्मी प्रोफेशनल मेकअप आर्टिस्ट, श्रीशैलम",
    "name_ta": "லக்ஷ்மி புரொஃபெஷனல் மேக்கப் ஆர்டிஸ்ட், ஸ்ரீசைலம்",
    "name_kn": "ಲಕ್ಷ್ಮಿ ಪ್ರೊಫೆಷನಲ್ ಮೆಕಪ್ ಆರ್ಟಿಸ್ಟ್, ಶ್ರೀಶೈಲಂ",
    "name_ml": "ലക്ഷ്മി പ്രൊഫഷണൽ മേക്കപ്പ് ആർട്ടിസ്റ്റ്, ശ്രീശൈലം",
    "category": "UTILITY",
    "latitude": 16.0738047,
    "longitude": 78.8725891
  },
  {
    "display name": "Srisailam Tattoo Studio",
    "name_te": "శ్రీశైలం టాటూ స్టూడియో",
    "name_hi": "श्रीशैलम टैटू स्टूडियो",
    "name_ta": "ஸ்ரீசைலம் டாட்டூ ஸ்டுடியோ",
    "name_kn": "ಶ್ರೀಶೈಲಮ್ ಟಟ್ಟೂ ಸ್ಟುಡಿಯೋ",
    "name_ml": "ഷ്രീശൈലം റ്റാറ്റൂ സ്ടുഡിയോ",
    "category": "UTILITY",
    "latitude": 16.0749095,
    "longitude": 78.8738309
  },
  {
    "display name": "Raju Bangles Store",
    "name_te": "రాజు బ్యాంగిల్స్ స్టోర్",
    "name_hi": "राजू चूड़ी की दुकान",
    "name_ta": "ராஜு பேங்கல்ஸ் ஸ்டோர்",
    "name_kn": "ರಾಜು ಬ್ಯಾಂಗಲ್ಸ್ ಸ್ಟೋರ್",
    "name_ml": "രാജു ബ്യാംഗല്സ് സ്ടോര്",
    "category": "UTILITY",
    "latitude": 16.0729273,
    "longitude": 78.8703175
  },
  {
    "display name": "Kangan Mahal",
    "name_te": "కంగన్ మహల్",
    "name_hi": "कंगन महल",
    "name_ta": "கங்கன் மஹால்",
    "name_kn": "ಕಂಗನ್ ಮಹಲ್",
    "name_ml": "കങ്കൻ മഹൽ",
    "category": "UTILITY",
    "latitude": 16.0728074,
    "longitude": 78.8717206
  },
  {
    "display name": "S.B.M.S Fabrics",
    "name_te": "ఎస్.బి.ఎం.ఎస్ ఫాబ్రిక్స్",
    "name_hi": "एस.बी.एम.एस फैब्रिक्स",
    "name_ta": "எஸ்.பி.எம்.எஸ் துணிகள்",
    "name_kn": "ಎಸ್.ಬಿ.ಎಂ.ಎಸ್. ಫ್ಯಾಬ್ರಿಕ್ಸ್",
    "name_ml": "എസ്.ബി.എം.എസ് ഫാബ്രിക്സ്",
    "category": "UTILITY",
    "latitude": 16.0732067,
    "longitude": 78.8728727
  },
  {
    "display name": "Sri Lalithamba Vanigya Samudayam",
    "name_te": "శ్రీ లలితాంబ వాణిజ్య సముదాయం",
    "name_hi": "श्री ललिताम्बा वाणीग्य समुदायम्",
    "name_ta": "ஸ்ரீ லலிதாம்பா வாணிக சமுதாயம்",
    "name_kn": "ಶ್ರೀ ಲಲಿತಾಂಬ ವಾಣಿಜ್ಯ ಸಮುದಾಯ",
    "name_ml": "ശ്രീ ലലിതാംബ വാണിജ്യ സമുദായം",
    "category": "UTILITY",
    "latitude": 16.0731901,
    "longitude": 78.8702978
  },
  {
    "display name": "Lalithambika Shopping Complex, Srisailam",
    "name_te": "లలితాంబిక షాపింగ్ కాంప్లెక్స్, శ్రీశైలం",
    "name_hi": "ललितंबिका शॉपिंग कॉम्प्लेक्स, श्रीशैलम",
    "name_ta": "லலிதாம்பிகா ஷாப்பிங் காம்ப்ளெக்ஸ், ஸ்ரீசைலம்",
    "name_kn": "ಲಲಿತಾಂಬಿಕಾ ಶಾಪಿಂಗ್ ಕಾಂಪ್ಲೆಕ್ಸ್, ಶ್ರೀಶೈಲಂ",
    "name_ml": "ലലിതാംബിക ഷോപ്പിംഗ് കോംപ്ലക്സ്, ശ്രീശൈലം",
    "category": "UTILITY",
    "latitude": 16.0729234,
    "longitude": 78.8725116
  },
  {
    "display name": "Sri Sri Tattva Store",
    "name_te": "శ్రి శ్రీ తత్త్వ స్టోర్",
    "name_hi": "श्री श्री तत्व स्टोर",
    "name_ta": "ஸ்ரீ ஸ்ரீ தத்வா ஸ்டோர்",
    "name_kn": "ಶ್ರಿ ಶ್ರಿ ತತ್ವಾ ಸ್ಟೋರ್",
    "name_ml": "ഷ്രി ഷ്രി തത്വ സ്ടോര്",
    "category": "UTILITY",
    "latitude": 16.0740868,
    "longitude": 78.8733371
  },
  {
    "display name": "Bharath General Stores",
    "name_te": "భారత్ జనరల్ స్టోర్స్",
    "name_hi": "भरत जनरल स्टोर्स",
    "name_ta": "பாரத் ஜெனரல் ஸ்டோர்ஸ்",
    "name_kn": "ಭಾರತ್ ಜನರಲ್ ಸ್ಟೋರ್ಸ್‌",
    "name_ml": "ഭാരത് ജെനരൽ സ്ടോര്സ്‌",
    "category": "UTILITY",
    "latitude": 16.0740674,
    "longitude": 78.8739617
  },
  {
    "display name": "BHUVANA Shop",
    "name_te": "భువనా షాప్",
    "name_hi": "भुवना शॉप",
    "name_ta": "புவனா கடை",
    "name_kn": "ಭುವನಾ ಅಂಗಡಿ",
    "name_ml": "ഭുവന കട",
    "category": "UTILITY",
    "latitude": 16.0717926,
    "longitude": 78.8750549
  },
  {
    "display name": "Eshwara Traders",
    "name_te": "ఈశ్వర ట్రేడర్స్",
    "name_hi": "ईश्वर व्यापारी",
    "name_ta": "ஈஷ்வரா டிரேடர்ஸ்",
    "name_kn": "ಈಶ್ವರ ಟ್ರೆಡರ್ಸ್",
    "name_ml": "ഏശ്വരാ ട്രെഡര്സ്",
    "category": "UTILITY",
    "latitude": 16.0728606,
    "longitude": 78.8739303
  },
  {
    "display name": "Ramsai Sweets & Bakery",
    "name_te": "రామ్సై స్వీట్స్ & బేకరి",
    "name_hi": "रामसाई मिठाई दुकान",
    "name_ta": "ராமசாய் இனிப்புக் கடை",
    "name_kn": "ರಾಮಸಾಯಿ ಸಿಹಿ ಅಂಗಡಿ",
    "name_ml": "രാംസായി മിഠായി കട",
    "category": "UTILITY",
    "latitude": 16.0738336,
    "longitude": 78.8733146
  },
  {
    "display name": "Rudraksha Matham",
    "name_te": "రుద్రాక్ష మఠం",
    "name_hi": "रुद्राक्ष मठ",
    "name_ta": "ருத்ராட்ச மடம்",
    "name_kn": "ರುದ್ರಾಕ್ಷ ಮಠ",
    "name_ml": "രുദ്രാക്ഷമഠം",
    "category": "ASHRAM",
    "latitude": 16.0766025,
    "longitude": 78.8631402
  },
  {
    "display name": "Sarangadhara Matham",
    "name_te": "సారంగధర మఠం",
    "name_hi": "सारंगधरा मठम",
    "name_ta": "சாரங்கதர மடம்",
    "name_kn": "ಸಾರಂಗಧರ ಮಠಂ",
    "name_ml": "സാരംഗാധര മഠം",
    "category": "ASHRAM",
    "latitude": 16.0782902,
    "longitude": 78.8614469
  },
  {
    "display name": "Ghanta Matham",
    "name_te": "ఘంట మఠం",
    "name_hi": "घंट मठ",
    "name_ta": "கண்ட மடம்",
    "name_kn": "ಘಂಟ ಮಠ",
    "name_ml": "ഘണ്ട മഠം",
    "category": "ASHRAM",
    "latitude": 16.0760557,
    "longitude": 78.8672149
  },
  {
    "display name": "Vibhuti Matham",
    "name_te": "విభూతి మఠం",
    "name_hi": "विभूति मठ",
    "name_ta": "விபூதி மடம்",
    "name_kn": "ವಿಭೂತಿ ಮಠ",
    "name_ml": "വിഭൂതി മഠം",
    "category": "ASHRAM",
    "latitude": 16.0763081,
    "longitude": 78.8638897
  },
  {
    "display name": "Bheema Sankara Matham",
    "name_te": "భీమ శంకర మఠం",
    "name_hi": "भीम शंकर मठ",
    "name_ta": "பீம சங்கர மடம்",
    "name_kn": "ಭೀಮ ಶಂಕರ ಮಠ",
    "name_ml": "ഭീമ ശങ്കര മഠം",
    "category": "ASHRAM",
    "latitude": 16.0763132,
    "longitude": 78.8663783
  },
  {
    "display name": "Sri Jagadguru Vaagesha Panditaradhya Matham",
    "name_te": "శ్రీ జగద్గురు వాగీశ పండితారాధ్య మఠం",
    "name_hi": "श्री जगद्गुरु वागीश पंडिताराध्य मठ",
    "name_ta": "ஸ்ரீ ஜகத்குரு வாகீச பண்டிதாராத்ய மடம்",
    "name_kn": "ಶ್ರೀ ಜಗದ್ಗುರು ವಾಗೀಶ ಪಂಡಿತಾರಾಧ್ಯ ಮಠ",
    "name_ml": "ശ്രീ ജഗദ്ഗുരു വാഗീശ പണ്ഡിതാരാധ്യ മഠം",
    "category": "ASHRAM",
    "latitude": 16.0718924,
    "longitude": 78.8683904
  },
  {
    "display name": "Sringeri Shankara Matam",
    "name_te": "శృంగేరి శంకర మఠం",
    "name_hi": "श्रृंगेरी शंकर मठ",
    "name_ta": "ஸ்ரிங்கேரி சங்கர மடம்",
    "name_kn": "ಶೃಂಗೇರಿ ಶಂಕರ ಮಠ",
    "name_ml": "ശൃംഗേരി ശങ്കര മഠം",
    "category": "ASHRAM",
    "latitude": 16.0741405,
    "longitude": 78.8702092
  },
  {
    "display name": "Viswamitra Mattam",
    "name_te": "విశ్వామిత్ర మఠం",
    "name_hi": "विश्वामित्र मठ",
    "name_ta": "விஸ்வாமித்ர மடம்",
    "name_kn": "ವಿಶ್ವಾಮಿತ್ರ ಮಠ",
    "name_ml": "വിശ്വാമിത്ര മഠം",
    "category": "ASHRAM",
    "latitude": 16.0808358,
    "longitude": 78.8602958
  },
  {
    "display name": "Kaalabhairav Matham",
    "name_te": "కాలభైరవ మఠం",
    "name_hi": "कालभैरव मठ",
    "name_ta": "காலபைரவர் மடம்",
    "name_kn": "ಕಾಲಭೈರವ ಮಠ",
    "name_ml": "കാലഭൈരവ മഠം",
    "category": "ASHRAM",
    "latitude": 16.0777929,
    "longitude": 78.86264
  },
  {
    "display name": "Kasi Reddy Nayana Nityannadana Ashramam",
    "name_te": "కాశీ రెడ్డి నయన నిత్యాన్నదాన ఆశ్రమం",
    "name_hi": "काशी रेड्डी नयन नित्य अन्नदान आश्रम",
    "name_ta": "காசி ரெட்டி நயன நித்ய அன்னதான ஆசிரமம்",
    "name_kn": "ಕಾಶಿ ರೆಡ್ಡಿ ನಯನ ನಿತ್ಯ ಅನ್ನದಾನ ಆಶ್ರಮ",
    "name_ml": "കാശി റെഡ്ഡി നയന നിത്യ അന്നദാന ആശ്രമം",
    "category": "ASHRAM",
    "latitude": 16.076756,
    "longitude": 78.8622211
  },
  {
    "display name": "Sri Sadasivananda Ashram",
    "name_te": "శ్రీ సదాశివానంద ఆశ్రమం",
    "name_hi": "श्री सदाशिवानंद आश्रम",
    "name_ta": "ஸ்ரீ சதாசிவானந்த ஆசிரமம்",
    "name_kn": "ಶ್ರೀ ಸದಾಶಿವಾನಂದ ಆಶ್ರಮ",
    "name_ml": "ശ്രീ സദാശിവാനന്ദ ആശ്രമം",
    "category": "ASHRAM",
    "latitude": 16.0776025,
    "longitude": 78.8664706
  },
  {
    "display name": "Shri Datta Sai (Maunasvami) Ashvaram",
    "name_te": "శ్రీ దత్త సాయి (మౌనస్వామి) అశ్వరం",
    "name_hi": "श्री दत्त साई (मौनस्वामी) आश्वरम",
    "name_ta": "ஸ்ரீ தத்த சாய் (மௌனஸ்வாமி) ஆஸ்வரம்",
    "name_kn": "ಶ್ರೀ ದತ್ತ ಸಾಯಿ (ಮೌನಸ್ವಾಮಿ) ಆಶ್ವರಂ",
    "name_ml": "ശ്രീ ദത്ത സായി (മൗനസ്വാമി) ആശ്വരം",
    "category": "ASHRAM",
    "latitude": 16.07657,
    "longitude": 78.8624956
  },
  {
    "display name": "Sri Sri Sri Dattagiri Maharaj Ashram",
    "name_te": "శ్రీ శ్రీ శ్రీ దత్తగిరి మహారాజ్ ఆశ్రమం",
    "name_hi": "श्री श्री श्री दत्तगिरी महाराज आश्रम",
    "name_ta": "ஸ்ரீ ஸ்ரீ ஸ்ரீ தத்தகிரி மகாராஜ் ஆசிரமம்",
    "name_kn": "ಶ್ರೀ ಶ್ರೀ ಶ್ರೀ ದತ್ತಗಿರಿ ಮಹಾರಾಜ ಆಶ್ರಮ",
    "name_ml": "ശ്രീ ശ്രീ ശ്രീ ദത്തഗിരി മഹാരാജ ആശ്രമം",
    "category": "ASHRAM",
    "latitude": 16.078211,
    "longitude": 78.8763484
  },
  {
    "display name": "Sri Mounaswami Asramam",
    "name_te": "శ్రీ మౌనస్వామి ఆశ్రమం",
    "name_hi": "श्री मौनस्वामी आश्रम",
    "name_ta": "ஸ்ரீ மௌனஸ்வாமி ஆசிரமம்",
    "name_kn": "ಶ್ರೀ ಮೌನಸ್ವಾಮಿ ಆಶ್ರಮ",
    "name_ml": "ശ്രീ മൗനസ്വാമി ആശ്രമം",
    "category": "ASHRAM",
    "latitude": 16.0662378,
    "longitude": 78.8678136
  },
  {
    "display name": "Hindu Maala Satram",
    "name_te": "హిందూ మాలా సత్రం",
    "name_hi": "हिन्दू माला सत्र",
    "name_ta": "இந்து மாலா சத்திரம்",
    "name_kn": "ಹಿಂದೂ ಮಾಲಾ ಸತ್ರ",
    "name_ml": "ഹിന്ദു മാലാ സത്രം",
    "category": "ASHRAM",
    "latitude": 16.069103,
    "longitude": 78.8723664
  },
  {
    "display name": "Shree Sidheshwer Nitya Annachhetram",
    "name_te": "శ్రీ సిద్ధేశ్వర్ నిత్య అన్నచ్ఛత్రం",
    "name_hi": "श्री सिद्धेश्वर नित्य अन्नछत्र",
    "name_ta": "ஸ்ரீ சித்தேஸ்வர் நித்ய அன்னச்சத்திரம்",
    "name_kn": "ಶ್ರೀ ಸಿದ್ಧೇಶ್ವರ ನಿತ್ಯ ಅನ್ನಚ್ಛತ್ರ",
    "name_ml": "ശ്രീ സിദ്ധേശ്വർ നിത്യ അന്നച്ഛത്രം",
    "category": "ASHRAM",
    "latitude": 16.0722662,
    "longitude": 78.873157
  },
  {
    "display name": "Karnabhaktula Sevasadan",
    "name_te": "కర్ణభక్తుల సేవాసదనం",
    "name_hi": "कर्णभक्तुला सेवा सदन",
    "name_ta": "கர்ணபக்துலா சேவாசதனம்",
    "name_kn": "ಕರ್ಣಭಕ್ತುಲ ಸೇವಾಸದನ",
    "name_ml": "കർണ്ണഭക്തുല സേവാസദനം",
    "category": "ASHRAM",
    "latitude": 16.0722951,
    "longitude": 78.8739676
  },
  {
    "display name": "Sri Sri Sri Ratnanda Swamulu Vari Ashramam",
    "name_te": "శ్రీ శ్రీ శ్రీ రత్నానంద స్వాముల వారి ఆశ్రమం",
    "name_hi": "श्री श्री श्री रत्नानंद स्वामुलु वारी आश्रम",
    "name_ta": "ஸ்ரீ ஸ்ரீ ஸ்ரீ ரத்னானந்த ஸ்வாமுலு வாரி ஆசிரமம்",
    "name_kn": "ಶ್ರೀ ಶ್ರೀ ಶ್ರೀ ರತ್ನಾನಂದ ಸ್ವಾಮುಲು ವಾರಿ ಆಶ್ರಮ",
    "name_ml": "ശ്രീ ശ്രീ ശ്രീ രത്നാനന്ദ സ്വാമുലു വാരി ആശ്രമം",
    "category": "ASHRAM",
    "latitude": 16.0784169,
    "longitude": 78.8609285
  }
]